{
"type": "FeatureCollection",
"name": "inmuebles_banco_suelo",
"crs": { "type": "name", "properties": { "name": "urn:ogc:def:crs:OGC:1.3:CRS84" } },
"features": [
{ "type": "Feature", "properties": { "GlobalID": "cbed4a33-70e7-40ad-a9fc-394133716fd4", "ROL": "6722-4", "ID": "MUN-06101-0056" }, "geometry": { "type": "MultiPolygon", "coordinates": [ [ [ [ -70.644271048088626, -33.384939803849726 ], [ -70.644365358862274, -33.385261848130071 ], [ -70.64480420349787, -33.38513435986853 ], [ -70.6447608352548, -33.384869326523763 ], [ -70.644271048088626, -33.384939803849726 ] ] ] ] } },
{ "type": "Feature", "properties": { "GlobalID": "931c368a-214d-4bd3-bbf3-12df9856b555", "ROL": "6929-1", "ID": "MUN-06101-0060" }, "geometry": { "type": "MultiPolygon", "coordinates": [ [ [ [ -70.642524400274354, -33.384672596667244 ], [ -70.642558522919032, -33.384672144975362 ], [ -70.643522597569202, -33.384393090165318 ], [ -70.643923223549734, -33.384280408047395 ], [ -70.643941559271838, -33.384257258532479 ], [ -70.643939287863304, -33.384227223268098 ], [ -70.643856953503928, -33.384023585894077 ], [ -70.643831226490576, -33.384016768856888 ], [ -70.643819283124898, -33.384016927076964 ], [ -70.642693966943398, -33.384342500805374 ], [ -70.642442751369316, -33.384414546065742 ], [ -70.642433052986547, -33.38444330768943 ], [ -70.642524400274354, -33.384672596667244 ] ] ] ] } },
{ "type": "Feature", "properties": { "GlobalID": "d390b45f-83d2-423f-a6b6-9a141e96f359", "ROL": "6722-1", "ID": "MUN-06101-0053" }, "geometry": { "type": "MultiPolygon", "coordinates": [ [ [ [ -70.644271048088626, -33.384939803849726 ], [ -70.644761770270051, -33.384869314129901 ], [ -70.644664234719443, -33.384273231018355 ], [ -70.644147270338451, -33.384338322431333 ], [ -70.644102168196383, -33.384359918347521 ], [ -70.644271048088626, -33.384939803849726 ] ] ] ] } },
{ "type": "Feature", "properties": { "GlobalID": "ad2998de-ac32-428d-892b-b691f281b2c4", "ROL": "2780-23", "ID": "MUN-06101-0005" }, "geometry": { "type": "MultiPolygon", "coordinates": [ [ [ [ -70.630880925458726, -33.412935814945563 ], [ -70.631078226717023, -33.413038690774464 ], [ -70.631112669410669, -33.412990572357856 ], [ -70.630920247649996, -33.412881802972727 ], [ -70.630880925458726, -33.412935814945563 ] ] ] ] } },
{ "type": "Feature", "properties": { "GlobalID": "28aa9997-dcbb-4b93-892f-672c6745bf7a", "ROL": "3295-18", "ID": "MUN-06101-0010" }, "geometry": { "type": "MultiPolygon", "coordinates": [ [ [ [ -70.622453229198669, -33.406226407504242 ], [ -70.622555687480272, -33.406315250889477 ], [ -70.622640766956735, -33.40624650034237 ], [ -70.622569382701869, -33.406166268922 ], [ -70.622453229198669, -33.406226407504242 ] ] ] ] } },
{ "type": "Feature", "properties": { "GlobalID": "50a6de01-fb04-40c0-83cd-68d2eb4dc106", "ROL": "5005-1", "ID": "MUN-06101-0034" }, "geometry": { "type": "MultiPolygon", "coordinates": [ [ [ [ -70.655554980765245, -33.394976575055871 ], [ -70.655518649433333, -33.395209128919731 ], [ -70.65583174941537, -33.395249332307976 ], [ -70.65587186795139, -33.395015381387317 ], [ -70.655554980765245, -33.394976575055871 ] ] ] ] } },
{ "type": "Feature", "properties": { "GlobalID": "f1738e59-70ec-4038-8ec2-19c5b13beff0", "ROL": "6940-2", "ID": "MUN-06101-0063" }, "geometry": { "type": "MultiPolygon", "coordinates": [ [ [ [ -70.640023735949853, -33.386815772180647 ], [ -70.639828327427495, -33.386635139857319 ], [ -70.639531012206973, -33.386719947123296 ], [ -70.63980777394525, -33.386977807518932 ], [ -70.640023735949853, -33.386815772180647 ] ] ] ] } },
{ "type": "Feature", "properties": { "GlobalID": "612ed356-b039-459c-8503-c617564daecd", "ROL": "6940-1", "ID": "MUN-06101-0062" }, "geometry": { "type": "MultiPolygon", "coordinates": [ [ [ [ -70.639828327427495, -33.386635139857319 ], [ -70.640023735949853, -33.386815772180647 ], [ -70.640461835682203, -33.386487065393212 ], [ -70.640439743907294, -33.386460735301334 ], [ -70.639828327427495, -33.386635139857319 ] ] ] ] } },
{ "type": "Feature", "properties": { "GlobalID": "1d63cc86-e850-4977-af07-b6e5a836b02f", "ROL": "6941-1", "ID": "MUN-06101-0064" }, "geometry": { "type": "MultiPolygon", "coordinates": [ [ [ [ -70.640203388237197, -33.38640059254503 ], [ -70.64002991523563, -33.38625077033268 ], [ -70.639683902663094, -33.3865019770424 ], [ -70.639731337766349, -33.386543189023165 ], [ -70.640203388237197, -33.38640059254503 ] ] ] ] } },
{ "type": "Feature", "properties": { "GlobalID": "722a49b0-bebe-4f72-b090-6146831d3f40", "ROL": "6740-1", "ID": "MUN-06101-0057" }, "geometry": { "type": "MultiPolygon", "coordinates": [ [ [ [ -70.640805826118211, -33.387937548759844 ], [ -70.640837173471709, -33.387940713601182 ], [ -70.641338145554769, -33.387657299307783 ], [ -70.641241681444626, -33.38751898756918 ], [ -70.640747854295014, -33.387879855742597 ], [ -70.640805826118211, -33.387937548759844 ] ] ] ] } },
{ "type": "Feature", "properties": { "GlobalID": "dba5a015-5bb6-419a-acfd-1e343b2af311", "ROL": "6639-20", "ID": "MUN-06101-0050" }, "geometry": { "type": "MultiPolygon", "coordinates": [ [ [ [ -70.641501653158002, -33.387879142041051 ], [ -70.641549476032793, -33.387936033765435 ], [ -70.641585184323617, -33.387916241343326 ], [ -70.641658614933419, -33.387875541307615 ], [ -70.641735875684191, -33.387832718135762 ], [ -70.641806304729144, -33.387793680129477 ], [ -70.641957080759695, -33.387710108643127 ], [ -70.642120485490665, -33.387619536644827 ], [ -70.642119646265954, -33.387608638261611 ], [ -70.641557027333064, -33.386218217794514 ], [ -70.64097700071531, -33.386380987534515 ], [ -70.641389662066786, -33.387511399029755 ], [ -70.641470739614334, -33.387708850887591 ], [ -70.641506887703827, -33.387772558931147 ], [ -70.641564077552999, -33.387845875391513 ], [ -70.641501653158002, -33.387879142041051 ] ] ] ] } },
{ "type": "Feature", "properties": { "GlobalID": "bb51935a-0706-4d94-b192-e93792a634ed", "ROL": "5605-1", "ID": "MUN-06101-0040" }, "geometry": { "type": "MultiPolygon", "coordinates": [ [ [ [ -70.653923540648819, -33.391244564924413 ], [ -70.653909459055868, -33.391850646452447 ], [ -70.654500519638205, -33.39183825681544 ], [ -70.654532165928401, -33.39180627069922 ], [ -70.654565213451107, -33.39121990370618 ], [ -70.653923540648819, -33.391244564924413 ] ] ] ] } },
{ "type": "Feature", "properties": { "GlobalID": "5e464820-512c-47f1-8375-2d7a1e2d8bc9", "ROL": "7035-1", "ID": "MUN-06101-0068" }, "geometry": { "type": "MultiPolygon", "coordinates": [ [ [ [ -70.641764058879758, -33.383074147284844 ], [ -70.641776774909388, -33.383024347454281 ], [ -70.641706156946412, -33.382849783768251 ], [ -70.641675407704099, -33.382836709051261 ], [ -70.640884752381936, -33.383383563992368 ], [ -70.640852243755802, -33.383469894569245 ], [ -70.6408152933449, -33.383562009623276 ], [ -70.640821025856923, -33.38362492700314 ], [ -70.641222886186711, -33.384667591578427 ], [ -70.641573981047927, -33.384582774148328 ], [ -70.641175109444504, -33.383578248617859 ], [ -70.641764058879758, -33.383074147284844 ] ] ] ] } },
{ "type": "Feature", "properties": { "GlobalID": "606e3b3e-d895-4f59-9b1a-b50df1051cd8", "ROL": "7273-1", "ID": "MUN-06101-0069" }, "geometry": { "type": "MultiPolygon", "coordinates": [ [ [ [ -70.626174125422111, -33.393953303809553 ], [ -70.626254564902496, -33.394542572539862 ], [ -70.626793071300014, -33.394238561481991 ], [ -70.626424343857053, -33.393761519381137 ], [ -70.62619923376036, -33.393876318620478 ], [ -70.626174125422111, -33.393953303809553 ] ] ] ] } },
{ "type": "Feature", "properties": { "GlobalID": "aceac5e9-b79e-453b-bd49-6dcf520935d9", "ROL": "5002-2", "ID": "MUN-06101-0033" }, "geometry": { "type": "MultiPolygon", "coordinates": [ [ [ [ -70.655866329674424, -33.394720183246292 ], [ -70.655642036615262, -33.394705280692456 ], [ -70.655604251877364, -33.39498260914376 ], [ -70.655821059046772, -33.395009159607618 ], [ -70.655866329674424, -33.394720183246292 ] ] ] ] } },
{ "type": "Feature", "properties": { "GlobalID": "f8fad102-c3d5-4588-8aa6-32a54d48afdc", "ROL": "281-17", "ID": "MUN-06101-0006" }, "geometry": { "type": "MultiPolygon", "coordinates": [ [ [ [ -70.640053080059602, -33.433061106598174 ], [ -70.640042613585848, -33.433030357404341 ], [ -70.639887515228082, -33.43305620438931 ], [ -70.639889928524397, -33.433079170005058 ], [ -70.639889878187574, -33.43307918149273 ], [ -70.639894174972497, -33.433120505975381 ], [ -70.639912545599671, -33.433116704398081 ], [ -70.639941599348575, -33.43311069002484 ], [ -70.639963730663197, -33.433106110024177 ], [ -70.639977894867812, -33.433103178422719 ], [ -70.639998732940612, -33.433098864425133 ], [ -70.640026051093486, -33.433093215682661 ], [ -70.640033700987971, -33.433091629189157 ], [ -70.640042903419626, -33.43307520331232 ], [ -70.640047183878437, -33.433074324228386 ], [ -70.640053080059602, -33.433061106598174 ] ] ] ] } },
{ "type": "Feature", "properties": { "GlobalID": "498d110b-311f-4ab8-b2b5-12b979d4ee09", "ROL": "371-7", "ID": "MUN-06101-0011" }, "geometry": { "type": "MultiPolygon", "coordinates": [ [ [ [ -70.643477709351743, -33.431072846920564 ], [ -70.64347777639351, -33.431073094034772 ], [ -70.643485690614838, -33.431072818694041 ], [ -70.643638248523231, -33.431070097674009 ], [ -70.643651155300972, -33.431069867069787 ], [ -70.643651398301728, -33.431069862946885 ], [ -70.643645932788843, -33.431059679803333 ], [ -70.643628142921102, -33.431026538046964 ], [ -70.643601459767098, -33.430976825835977 ], [ -70.643580365884034, -33.43093752779685 ], [ -70.643579223297465, -33.430935399295748 ], [ -70.64351718757861, -33.430952273191323 ], [ -70.643451222476571, -33.430970214593998 ], [ -70.643477709351743, -33.431072846920564 ] ] ] ] } },
{ "type": "Feature", "properties": { "GlobalID": "6c927718-e433-4c5d-8fa8-b6348040615f", "ROL": "3735-2", "ID": "MUN-06101-0012" }, "geometry": { "type": "MultiPolygon", "coordinates": [ [ [ [ -70.643725843177208, -33.401609477736066 ], [ -70.643730241156192, -33.401653569557752 ], [ -70.64356925524244, -33.401669230037484 ], [ -70.643152724039098, -33.401710821225699 ], [ -70.64311779570896, -33.401747357157831 ], [ -70.643133924099715, -33.402193550486864 ], [ -70.643877295812928, -33.402150455865765 ], [ -70.643805190084379, -33.40160108633701 ], [ -70.643725843177208, -33.401609477736066 ] ] ] ] } },
{ "type": "Feature", "properties": { "GlobalID": "7c318ff6-83ee-4238-aecb-9b962c742c93", "ROL": "6959-1", "ID": "MUN-06101-0065" }, "geometry": { "type": "MultiPolygon", "coordinates": [ [ [ [ -70.632255363927939, -33.391803734870898 ], [ -70.632318933689504, -33.391861517854991 ], [ -70.632463104211112, -33.391755909940628 ], [ -70.632402893252475, -33.391698082838403 ], [ -70.632255363927939, -33.391803734870898 ] ] ] ] } },
{ "type": "Feature", "properties": { "GlobalID": "35dce37b-9a78-4147-8087-3b9fc59b2204", "ROL": "3945-24", "ID": "MUN-06101-0018" }, "geometry": { "type": "MultiPolygon", "coordinates": [ [ [ [ -70.638768767012394, -33.402504042907502 ], [ -70.638778225722248, -33.402616957301234 ], [ -70.63886907444143, -33.402611876525391 ], [ -70.638857608552726, -33.402498122897988 ], [ -70.638768767012394, -33.402504042907502 ] ] ] ] } },
{ "type": "Feature", "properties": { "GlobalID": "a9ec9e3b-edde-4049-a673-b0c66f83fd40", "ROL": "5008-1", "ID": "MUN-06101-0035" }, "geometry": { "type": "MultiPolygon", "coordinates": [ [ [ [ -70.65120236617507, -33.395124280103559 ], [ -70.651201064169754, -33.395268590502482 ], [ -70.651200247283924, -33.395349766225266 ], [ -70.65120589351082, -33.395417328452901 ], [ -70.651372319928825, -33.395388058373555 ], [ -70.651563432754628, -33.395349441129348 ], [ -70.651701729256416, -33.395325054236487 ], [ -70.651786284011749, -33.395301382717456 ], [ -70.651863283277677, -33.395286830055383 ], [ -70.651950945748496, -33.395267626205104 ], [ -70.652059768828394, -33.395248140517403 ], [ -70.652130050158775, -33.395233677147949 ], [ -70.652301514777321, -33.395204338739397 ], [ -70.652295628541424, -33.395177362187901 ], [ -70.652284954445534, -33.395052556492338 ], [ -70.652284842620617, -33.395051249424085 ], [ -70.652198939827329, -33.395056902599109 ], [ -70.65208154856947, -33.395067484186043 ], [ -70.652012440300936, -33.395072913590383 ], [ -70.651946019151993, -33.395078307176824 ], [ -70.651697293786398, -33.395090637071533 ], [ -70.651594681622441, -33.395101021441292 ], [ -70.651407089432439, -33.395112536912862 ], [ -70.65120236617507, -33.395124280103559 ] ] ] ] } },
{ "type": "Feature", "properties": { "GlobalID": "97ef1a1e-71c2-4cf6-b031-1d4503f9125b", "ROL": "4835-23", "ID": "MUN-06101-0025" }, "geometry": { "type": "MultiPolygon", "coordinates": [ [ [ [ -70.643993447194134, -33.397271685361986 ], [ -70.644027525830424, -33.397600402692362 ], [ -70.644088910495427, -33.397595080054465 ], [ -70.644147482370244, -33.397591631696756 ], [ -70.64411643508717, -33.397263877973565 ], [ -70.643993447194134, -33.397271685361986 ] ] ] ] } },
{ "type": "Feature", "properties": { "GlobalID": "5fffb5b3-4f9a-48c4-a16f-23f94a53d69f", "ROL": "5813-24", "ID": "MUN-06101-0044" }, "geometry": { "type": "MultiPolygon", "coordinates": [ [ [ [ -70.651061624907271, -33.389814362239001 ], [ -70.65107931192145, -33.390003511683716 ], [ -70.65109207505202, -33.390003341841442 ], [ -70.651127677468281, -33.390002868063981 ], [ -70.651163866374375, -33.389997877309419 ], [ -70.65119602481434, -33.389992940182438 ], [ -70.651235993020364, -33.389992408273308 ], [ -70.651219634243517, -33.389749131235405 ], [ -70.65105715798714, -33.389755802571919 ], [ -70.651061624907271, -33.389814362239001 ] ] ] ] } },
{ "type": "Feature", "properties": { "GlobalID": "23d60651-9b61-40f5-b572-8d60f35acfb7", "ROL": "4760-1", "ID": "MUN-06101-0024" }, "geometry": { "type": "MultiPolygon", "coordinates": [ [ [ [ -70.633734157712723, -33.40023446263551 ], [ -70.633796242099777, -33.400499686074248 ], [ -70.634468814238446, -33.400351042283191 ], [ -70.634378678829478, -33.400077170429874 ], [ -70.634335513077076, -33.400068720769042 ], [ -70.634160841532534, -33.400107095159093 ], [ -70.633967190998476, -33.400154737624021 ], [ -70.633738018816615, -33.400207356762891 ], [ -70.633734157712723, -33.40023446263551 ] ] ] ] } },
{ "type": "Feature", "properties": { "GlobalID": "481ecca3-0d3a-45d6-8a68-b4d0928c96ab", "ROL": "3195-2", "ID": "MUN-06101-0007" }, "geometry": { "type": "MultiPolygon", "coordinates": [ [ [ [ -70.623999414755374, -33.407526235470421 ], [ -70.624547360774699, -33.408149696332472 ], [ -70.624999831447397, -33.407881371786914 ], [ -70.624443875676903, -33.407251402862471 ], [ -70.623999414755374, -33.407526235470421 ] ] ] ] } },
{ "type": "Feature", "properties": { "GlobalID": "98202c9d-464e-4d35-bbf2-fb4550cf636e", "ROL": "6750-1", "ID": "MUN-06101-0059" }, "geometry": { "type": "MultiPolygon", "coordinates": [ [ [ [ -70.636669265696597, -33.390334216568114 ], [ -70.636733424412171, -33.390387480325479 ], [ -70.637447107161236, -33.389963219638339 ], [ -70.637135796678692, -33.389647176293941 ], [ -70.636805325453039, -33.389886013419435 ], [ -70.637010568709869, -33.390081709350007 ], [ -70.636669265696597, -33.390334216568114 ] ] ] ] } },
{ "type": "Feature", "properties": { "GlobalID": "828f1743-a2a4-4547-a4c5-c183d34ba3a4", "ROL": "867-44", "ID": "MUN-06101-0071" }, "geometry": { "type": "MultiPolygon", "coordinates": [ [ [ [ -70.645625245747155, -33.424067816146433 ], [ -70.646221922443345, -33.423952430430496 ], [ -70.646222887642622, -33.423951032408795 ], [ -70.646274781739947, -33.423942603121759 ], [ -70.64647282944091, -33.42391043264837 ], [ -70.646446938318135, -33.423828125597375 ], [ -70.646445279191369, -33.423826947290749 ], [ -70.646434193751418, -33.42379006898598 ], [ -70.646407238011903, -33.423701042102977 ], [ -70.646195156761451, -33.423726713496613 ], [ -70.645927023697624, -33.423759168928129 ], [ -70.64593900641168, -33.423828210821625 ], [ -70.645557578490298, -33.423874844310532 ], [ -70.645625245747155, -33.424067816146433 ] ] ] ] } },
{ "type": "Feature", "properties": { "GlobalID": "1529a986-5912-45c2-a6db-77f34cc58a94", "ROL": "6722-3", "ID": "MUN-06101-0055" }, "geometry": { "type": "MultiPolygon", "coordinates": [ [ [ [ -70.644805138515949, -33.385134347474256 ], [ -70.64436629388193, -33.385261835739065 ], [ -70.644367230264592, -33.385265035663558 ], [ -70.644592783794707, -33.38588434352679 ], [ -70.64527405704095, -33.385636890536027 ], [ -70.645203932775118, -33.385424889193374 ], [ -70.645309201371674, -33.385396292281683 ], [ -70.645230322362238, -33.385010825607246 ], [ -70.644805138515949, -33.385134347474256 ] ] ] ] } },
{ "type": "Feature", "properties": { "GlobalID": "fbf56bd8-f08e-434b-9700-d5df5319fd15", "ROL": "2576-14", "ID": "MUN-06101-0004" }, "geometry": { "type": "MultiPolygon", "coordinates": [ [ [ [ -70.636827171542834, -33.412188046594459 ], [ -70.636628681905151, -33.41230201593001 ], [ -70.636562007632534, -33.412358588318597 ], [ -70.63650847726548, -33.412386734657446 ], [ -70.636396700497812, -33.412360275152139 ], [ -70.636258737588221, -33.412724551465999 ], [ -70.636849250212123, -33.412895020538052 ], [ -70.636998899946846, -33.412571551478308 ], [ -70.63705803752039, -33.412534775242968 ], [ -70.637383350701285, -33.412332471341976 ], [ -70.637250785146691, -33.412173475160024 ], [ -70.637051399263484, -33.412289964987892 ], [ -70.636987550964761, -33.412211049651695 ], [ -70.636923971376874, -33.412132465313093 ], [ -70.636827171542834, -33.412188046594459 ] ] ] ] } },
{ "type": "Feature", "properties": { "GlobalID": "80da131d-6e2d-43f3-bb5d-5d4fe8341372", "ROL": "6748-1", "ID": "MUN-06101-0058" }, "geometry": { "type": "MultiPolygon", "coordinates": [ [ [ [ -70.638076123776358, -33.388769003950479 ], [ -70.637782348677547, -33.388975794913904 ], [ -70.637736496510882, -33.388931308396785 ], [ -70.637078836188209, -33.389404432412427 ], [ -70.637571369422034, -33.38987139616998 ], [ -70.637603697842906, -33.389875478661388 ], [ -70.638563453704862, -33.389245050822566 ], [ -70.638076123776358, -33.388769003950479 ] ] ] ] } },
{ "type": "Feature", "properties": { "GlobalID": "1c7c8b95-540d-41c2-a8c9-fca4932e65f0", "ROL": "667-44", "ID": "MUN-06101-0051" }, "geometry": { "type": "MultiPolygon", "coordinates": [ [ [ [ -70.645947414105564, -33.425256159428343 ], [ -70.645980529363172, -33.425366326465827 ], [ -70.646070102907046, -33.425352862730222 ], [ -70.646237714595543, -33.425327669105883 ], [ -70.646245827360005, -33.425362489227545 ], [ -70.646597191980206, -33.42532009449792 ], [ -70.646617743071161, -33.425317614844118 ], [ -70.646617789726477, -33.42531775040073 ], [ -70.646618061248205, -33.425317719740548 ], [ -70.646550983789055, -33.425129215579517 ], [ -70.646547586883401, -33.425129929839017 ], [ -70.646335271278218, -33.42517458452209 ], [ -70.64628400381504, -33.4251853674157 ], [ -70.6460707934433, -33.425230210286728 ], [ -70.645947414105564, -33.425256159428343 ] ] ] ] } },
{ "type": "Feature", "properties": { "GlobalID": "26c1574b-a3ee-41c5-851d-8bc2079b18b2", "ROL": "3761-1", "ID": "MUN-06101-0016" }, "geometry": { "type": "MultiPolygon", "coordinates": [ [ [ [ -70.634415100865979, -33.402380876173353 ], [ -70.634415102118709, -33.402398912831551 ], [ -70.634409520645931, -33.402854412389686 ], [ -70.634851430226547, -33.402857607649658 ], [ -70.63487721138695, -33.402852758712754 ], [ -70.634877958777636, -33.402767074671132 ], [ -70.634904488687027, -33.402766725029146 ], [ -70.634904832672888, -33.402766720495684 ], [ -70.634930362872936, -33.402766384023593 ], [ -70.63493789723799, -33.402766284724358 ], [ -70.634959587695519, -33.402765998852246 ], [ -70.634969237687542, -33.40276742733068 ], [ -70.634987554356726, -33.402770139424419 ], [ -70.635001789996295, -33.402769951798732 ], [ -70.635016443793532, -33.402769758660021 ], [ -70.635034211737477, -33.402769524474181 ], [ -70.635043317687732, -33.402769404454546 ], [ -70.63506650018347, -33.402769098898062 ], [ -70.635070191581477, -33.402769050243251 ], [ -70.635097947199085, -33.402770018216131 ], [ -70.635130516510571, -33.402771154504343 ], [ -70.635161579533019, -33.402772238492211 ], [ -70.635163998212761, -33.402772322947271 ], [ -70.635195187529206, -33.40277343321884 ], [ -70.635224932920892, -33.402774491271302 ], [ -70.635256462228341, -33.402775613278692 ], [ -70.635257768299539, -33.402775596061907 ], [ -70.635285351663057, -33.402775232451638 ], [ -70.63529130154285, -33.40277515401813 ], [ -70.635313569249945, -33.402774860474516 ], [ -70.635323180454137, -33.402776341742943 ], [ -70.635340527618894, -33.402779014258591 ], [ -70.635354948149782, -33.402778824154936 ], [ -70.635367401511601, -33.402778659982829 ], [ -70.63538694420609, -33.402778402349853 ], [ -70.63539427540384, -33.402778305701261 ], [ -70.635419843224483, -33.402777968632371 ], [ -70.635423164837476, -33.402777924842084 ], [ -70.63546624754693, -33.402781866023119 ], [ -70.635466311112566, -33.402780438484498 ], [ -70.63548752534679, -33.402303613731306 ], [ -70.635453341795611, -33.402272500223724 ], [ -70.634414753668892, -33.402272660698472 ], [ -70.634415100865979, -33.402380876173353 ] ] ] ] } },
{ "type": "Feature", "properties": { "GlobalID": "b2099e48-855c-4f7a-9a9a-c441658307e1", "ROL": "668-10", "ID": "MUN-06101-0052" }, "geometry": { "type": "MultiPolygon", "coordinates": [ [ [ [ -70.645215410066157, -33.426238949740927 ], [ -70.64501700206138, -33.426252328963436 ], [ -70.645012186047566, -33.426206331951356 ], [ -70.644749622932764, -33.426226040381536 ], [ -70.64480508273617, -33.426491609386559 ], [ -70.644807019788047, -33.426501361320184 ], [ -70.644815782651278, -33.426543813206955 ], [ -70.644821672816235, -33.426572353710583 ], [ -70.644836606387145, -33.426644704138184 ], [ -70.644850787174363, -33.426713408534631 ], [ -70.644864986993142, -33.426782208269778 ], [ -70.644879171803893, -33.426850154169578 ], [ -70.644879296135215, -33.4268507585492 ], [ -70.644879341468098, -33.42685099512881 ], [ -70.644879355833879, -33.426851072495516 ], [ -70.644883085419295, -33.426850543251703 ], [ -70.644894401806425, -33.426848936691904 ], [ -70.644912210564257, -33.426846789490121 ], [ -70.644926337581737, -33.426845085222645 ], [ -70.644942903738823, -33.426843317034454 ], [ -70.645363481348724, -33.426798421255128 ], [ -70.646021405500534, -33.426728187043892 ], [ -70.646037687007166, -33.426711058939688 ], [ -70.646059862473081, -33.426687729182525 ], [ -70.645977078933342, -33.426387084339567 ], [ -70.645882320510637, -33.426064746147198 ], [ -70.645845581726263, -33.425917830780776 ], [ -70.645817811455871, -33.425893860797686 ], [ -70.645183457132944, -33.425932999921869 ], [ -70.645215410066157, -33.426238949740927 ] ] ] ] } },
{ "type": "Feature", "properties": { "GlobalID": "d3178c80-b472-4243-be56-7f72ab67bb84", "ROL": "3263-40", "ID": "MUN-06101-0008" }, "geometry": { "type": "MultiPolygon", "coordinates": [ [ [ [ -70.648225331863017, -33.404894629097022 ], [ -70.648372685813044, -33.405402205539531 ], [ -70.648455991579908, -33.405383061893176 ], [ -70.648542742864109, -33.405368381555334 ], [ -70.648720776947059, -33.405329942161821 ], [ -70.648895115083718, -33.40529155164392 ], [ -70.648973467378411, -33.405276982651429 ], [ -70.649069789525342, -33.405253156412378 ], [ -70.649041126011142, -33.40515884523434 ], [ -70.649012377372472, -33.405060026025048 ], [ -70.649361560080493, -33.404992255519623 ], [ -70.649278757973903, -33.404700261462168 ], [ -70.649235503496243, -33.404687309086761 ], [ -70.648225331863017, -33.404894629097022 ] ] ] ] } },
{ "type": "Feature", "properties": { "GlobalID": "70bf4c91-5067-457a-b663-e02a72e2427d", "ROL": "381-40", "ID": "MUN-06101-0017" }, "geometry": { "type": "MultiPolygon", "coordinates": [ [ [ [ -70.638228410278359, -33.430697188619305 ], [ -70.63829281662224, -33.430981425757864 ], [ -70.638377945308832, -33.430966638285334 ], [ -70.638410912579403, -33.431144445622714 ], [ -70.638408104845425, -33.431145334950152 ], [ -70.638410495531645, -33.431157851412955 ], [ -70.638533527712852, -33.431128599079926 ], [ -70.638533540117379, -33.431128629578204 ], [ -70.638553459302315, -33.431123859922288 ], [ -70.638549774178173, -33.431105479739585 ], [ -70.639151119079145, -33.430934910551848 ], [ -70.639150732331814, -33.430934362843061 ], [ -70.639150795452437, -33.430934344873918 ], [ -70.639011266578535, -33.430736994120565 ], [ -70.638938431727837, -33.430633975018814 ], [ -70.63888093588487, -33.430552651354347 ], [ -70.638732922943618, -33.430585817124452 ], [ -70.638518795898761, -33.430633796836993 ], [ -70.638454413801071, -33.430648223694945 ], [ -70.638262943537825, -33.430691126605922 ], [ -70.638228410278359, -33.430697188619305 ] ] ] ] } },
{ "type": "Feature", "properties": { "GlobalID": "7f67f64e-a3c5-45e1-a9c6-8650b53216e3", "ROL": "4945-19", "ID": "MUN-06101-0032" }, "geometry": { "type": "MultiPolygon", "coordinates": [ [ [ [ -70.640009833867524, -33.398081950250621 ], [ -70.639744927710552, -33.39814850358087 ], [ -70.639720008291491, -33.398179904714752 ], [ -70.639809246898963, -33.399062134921842 ], [ -70.640408556460955, -33.398937929376714 ], [ -70.640386841018966, -33.398640611576475 ], [ -70.640346353473802, -33.398077501164046 ], [ -70.640009833867524, -33.398081950250621 ] ] ] ] } },
{ "type": "Feature", "properties": { "GlobalID": "78c80fd0-f4e7-4078-90bf-b9a421f6792c", "ROL": "5612-1", "ID": "MUN-06101-0041" }, "geometry": { "type": "MultiPolygon", "coordinates": [ [ [ [ -70.651013519414249, -33.392177322276972 ], [ -70.65078500704233, -33.392178209329522 ], [ -70.650546351925001, -33.392179134397665 ], [ -70.650544810362859, -33.392562808746163 ], [ -70.650565640611163, -33.392580568274319 ], [ -70.650981632797027, -33.392584051714955 ], [ -70.651009335347837, -33.392556628113759 ], [ -70.651013519414249, -33.392177322276972 ] ] ] ] } },
{ "type": "Feature", "properties": { "GlobalID": "967b9a47-702f-49f4-a55b-dfc7507696cb", "ROL": "6610-1", "ID": "MUN-06101-0049" }, "geometry": { "type": "MultiPolygon", "coordinates": [ [ [ [ -70.651439528570734, -33.383490214901443 ], [ -70.651515618369601, -33.384355358830781 ], [ -70.652280962832407, -33.384307946881428 ], [ -70.65218948410039, -33.383441577240795 ], [ -70.651439528570734, -33.383490214901443 ] ] ] ] } },
{ "type": "Feature", "properties": { "GlobalID": "ec752996-dc59-4e4e-a74f-e2c66cffc46c", "ROL": "6601-2", "ID": "MUN-06101-0048" }, "geometry": { "type": "MultiPolygon", "coordinates": [ [ [ [ -70.656079699717509, -33.383886365764077 ], [ -70.656417643958179, -33.383863380057448 ], [ -70.657169601495326, -33.383812230754053 ], [ -70.657252185135306, -33.383144192269917 ], [ -70.656037438676776, -33.383216624840443 ], [ -70.656079699717509, -33.383886365764077 ] ] ] ] } },
{ "type": "Feature", "properties": { "GlobalID": "1a94f002-112b-48a0-b8df-8ab0703fb959", "ROL": "3738-3", "ID": "MUN-06101-0014" }, "geometry": { "type": "MultiPolygon", "coordinates": [ [ [ [ -70.641110882600941, -33.403392712477661 ], [ -70.641140365606077, -33.403423886564148 ], [ -70.64150106166953, -33.403396568332546 ], [ -70.64166104293291, -33.403380923776915 ], [ -70.641808260061509, -33.403365447950634 ], [ -70.641931625935811, -33.403350287649317 ], [ -70.641956392831077, -33.403309377378861 ], [ -70.641982819982005, -33.402713818261063 ], [ -70.641981789321477, -33.402696413913397 ], [ -70.64197746478122, -33.402623380348032 ], [ -70.641976416785894, -33.402605683133977 ], [ -70.64197436829707, -33.402593500340039 ], [ -70.641983038491503, -33.402592852595888 ], [ -70.641983031963207, -33.402592791357698 ], [ -70.641955012669584, -33.402594952364318 ], [ -70.641598529916962, -33.402621660576003 ], [ -70.641554633648127, -33.402624949660542 ], [ -70.641511720876778, -33.402628164390826 ], [ -70.641463988244709, -33.402631740488225 ], [ -70.641417902666021, -33.402635192866811 ], [ -70.641377296214387, -33.40263823544629 ], [ -70.641340592677878, -33.402640985583226 ], [ -70.641312600091396, -33.40264308206168 ], [ -70.641301430332973, -33.402643918847488 ], [ -70.641294467297314, -33.402644437540864 ], [ -70.641290711527972, -33.402644721709009 ], [ -70.641290392640627, -33.402644745768455 ], [ -70.641290199352952, -33.40264475914779 ], [ -70.64129114326289, -33.402657672623974 ], [ -70.641289626562838, -33.40266026832461 ], [ -70.641283128585599, -33.402671393628829 ], [ -70.64126125750208, -33.402708837592648 ], [ -70.641260612054566, -33.402709849871798 ], [ -70.641134782326773, -33.402716021960025 ], [ -70.64113053160581, -33.402792388554502 ], [ -70.641130512300805, -33.402792734211751 ], [ -70.641110882600941, -33.403392712477661 ] ] ] ] } },
{ "type": "Feature", "properties": { "GlobalID": "01366f14-c079-47e9-a671-091d7b3869fc", "ROL": "5243-1", "ID": "MUN-06101-0039" }, "geometry": { "type": "MultiPolygon", "coordinates": [ [ [ [ -70.640343953467053, -33.395732766031237 ], [ -70.640494173567191, -33.396181696521126 ], [ -70.640816465570239, -33.396168416081672 ], [ -70.640827798816943, -33.396145720355932 ], [ -70.641251025566476, -33.396122085478375 ], [ -70.641277897330554, -33.39612172998482 ], [ -70.641291665954213, -33.39610351116692 ], [ -70.641315254564446, -33.396053598265652 ], [ -70.641317342070295, -33.395985933147074 ], [ -70.641308916244597, -33.395823714610813 ], [ -70.64124962904576, -33.395815480606295 ], [ -70.641246514399569, -33.395774939307309 ], [ -70.641259943937271, -33.395738688310601 ], [ -70.641154379135145, -33.39568146562555 ], [ -70.641088961177346, -33.395668803474145 ], [ -70.640520626160665, -33.395676319969056 ], [ -70.640355117360045, -33.395701054249578 ], [ -70.640346638213714, -33.395714693862779 ], [ -70.640343953467053, -33.395732766031237 ] ] ] ] } },
{ "type": "Feature", "properties": { "GlobalID": "6286842b-ff39-48fb-b3ab-6e34d3087f0d", "ROL": "4076-4", "ID": "MUN-06101-0019" }, "geometry": { "type": "MultiPolygon", "coordinates": [ [ [ [ -70.630010890255463, -33.402208856729878 ], [ -70.62999636051957, -33.402186501781564 ], [ -70.629966713424054, -33.402146308773027 ], [ -70.629912541800948, -33.402070364600768 ], [ -70.629880375484987, -33.402021186323275 ], [ -70.629815286155377, -33.401936367201081 ], [ -70.630156993819782, -33.401756019614197 ], [ -70.630230558052176, -33.401718979518229 ], [ -70.630270112061908, -33.40169591385407 ], [ -70.630010848294305, -33.401343096063812 ], [ -70.629991867032118, -33.401316290427133 ], [ -70.629976582826728, -33.401307472904207 ], [ -70.629954075722907, -33.401307768628364 ], [ -70.629933837786936, -33.40132156205425 ], [ -70.629780663671937, -33.401431794661903 ], [ -70.629763027775326, -33.401441044702366 ], [ -70.629317527488737, -33.401767048016097 ], [ -70.629219021920363, -33.401835979355702 ], [ -70.629195507614838, -33.401854324867024 ], [ -70.629175269430547, -33.401868118175429 ], [ -70.6291639324279, -33.401890812930908 ], [ -70.629163261822882, -33.401908858432535 ], [ -70.629175607624902, -33.401940260512582 ], [ -70.629190137110896, -33.401962615565523 ], [ -70.629280841731543, -33.402105717857999 ], [ -70.6293616358235, -33.402221895206111 ], [ -70.629485601012234, -33.402436707237783 ], [ -70.629516170812494, -33.402454342376458 ], [ -70.629540440152468, -33.402440496059214 ], [ -70.629654064535771, -33.402389402542063 ], [ -70.629663386200249, -33.402384770911524 ], [ -70.629704116263028, -33.402370708318529 ], [ -70.62976600863081, -33.40233833099785 ], [ -70.629779696743611, -33.402333641993373 ], [ -70.62979724862528, -33.402319883879656 ], [ -70.629852170199428, -33.402292107271684 ], [ -70.629904405432143, -33.402264365935316 ], [ -70.629947989768652, -33.402241247416207 ], [ -70.630010890255463, -33.402208856729878 ] ] ] ] } },
{ "type": "Feature", "properties": { "GlobalID": "a642d49a-a8f0-4d46-ab4c-5f06101e2e25", "ROL": "2492-1", "ID": "MUN-06101-0002" }, "geometry": { "type": "MultiPolygon", "coordinates": [ [ [ [ -70.626159528283466, -33.412793208546134 ], [ -70.626182447061652, -33.412794934483664 ], [ -70.626133706427467, -33.412954297157633 ], [ -70.626364602815002, -33.412970775535477 ], [ -70.62638270134515, -33.412964625797386 ], [ -70.626395329980795, -33.41294869254228 ], [ -70.626439815069944, -33.412814308654106 ], [ -70.626488216329662, -33.412668095446698 ], [ -70.626489702851643, -33.412653293996151 ], [ -70.626478322009248, -33.412641618391852 ], [ -70.626453495956127, -33.412633566805113 ], [ -70.626290471091849, -33.412622525048164 ], [ -70.626148529217176, -33.41261291203574 ], [ -70.626159528283466, -33.412793208546134 ] ] ] ] } },
{ "type": "Feature", "properties": { "GlobalID": "a138e595-1998-4df3-8134-5b07180ae4eb", "ROL": "567 -74", "ID": "MUN-06101-0042" }, "geometry": { "type": "MultiPolygon", "coordinates": [ [ [ [ -70.646530216789884, -33.426687491005708 ], [ -70.647690169939082, -33.426350614747989 ], [ -70.647484793132435, -33.425802382290925 ], [ -70.646337448777629, -33.426133372455411 ], [ -70.646530216789884, -33.426687491005708 ] ] ] ] } },
{ "type": "Feature", "properties": { "GlobalID": "0d0c7186-e206-4118-9e95-6e83fa23867f", "ROL": "567-73", "ID": "MUN-06101-0043" }, "geometry": { "type": "MultiPolygon", "coordinates": [ [ [ [ -70.646530216789884, -33.426687491005708 ], [ -70.646571812871954, -33.4268070604233 ], [ -70.646508626804888, -33.42684051582301 ], [ -70.646635723764234, -33.427264378422606 ], [ -70.647887481436356, -33.42691201783451 ], [ -70.647899782395939, -33.426908789056078 ], [ -70.647878277546425, -33.42685274304111 ], [ -70.647690169939082, -33.426350614747989 ], [ -70.646530216789884, -33.426687491005708 ] ] ] ] } },
{ "type": "Feature", "properties": { "GlobalID": "71c30d81-928c-4744-bdfa-71151ad523d4", "ROL": "4403-1", "ID": "MUN-06101-0023" }, "geometry": { "type": "MultiPolygon", "coordinates": [ [ [ [ -70.655451988613848, -33.398341293698856 ], [ -70.655528691560093, -33.398930969086187 ], [ -70.656349447972346, -33.398838848769095 ], [ -70.65627626972416, -33.398258145223473 ], [ -70.655451988613848, -33.398341293698856 ] ] ] ] } },
{ "type": "Feature", "properties": { "GlobalID": "04bced30-9560-4571-aa07-9df23920b397", "ROL": "6722-2", "ID": "MUN-06101-0054" }, "geometry": { "type": "MultiPolygon", "coordinates": [ [ [ [ -70.644664234719443, -33.384273231018355 ], [ -70.644761770270051, -33.384869314129901 ], [ -70.644805138515949, -33.385134347474256 ], [ -70.645230322362238, -33.385010825607246 ], [ -70.645096138239737, -33.3842188490053 ], [ -70.644664234719443, -33.384273231018355 ] ] ] ] } },
{ "type": "Feature", "properties": { "GlobalID": "6223c671-e26d-4c67-b88c-44ea04b599c2", "ROL": "6114-3", "ID": "MUN-06101-0046" }, "geometry": { "type": "MultiPolygon", "coordinates": [ [ [ [ -70.649967308408208, -33.386857692382364 ], [ -70.649759188776656, -33.386949773641362 ], [ -70.649690437630937, -33.386985099880455 ], [ -70.649684232931818, -33.386975558011912 ], [ -70.649523089779223, -33.387055153395551 ], [ -70.649582423112804, -33.38713883659706 ], [ -70.649636519254926, -33.387215133942135 ], [ -70.649749132968054, -33.387373963659343 ], [ -70.649943167558291, -33.387324383704843 ], [ -70.650131822970735, -33.387313284954651 ], [ -70.650268470934051, -33.387289516078674 ], [ -70.650211446089443, -33.386860775658519 ], [ -70.650192820060283, -33.386757915908007 ], [ -70.649967308408208, -33.386857692382364 ] ] ] ] } },
{ "type": "Feature", "properties": { "GlobalID": "be6f20c9-4fce-4de9-9f44-f911f57df880", "ROL": "4136-10", "ID": "MUN-06101-0020" }, "geometry": { "type": "MultiPolygon", "coordinates": [ [ [ [ -70.641930629301939, -33.40068989513528 ], [ -70.64206491028385, -33.400683608619474 ], [ -70.642061201266358, -33.400611511106035 ], [ -70.642054446641296, -33.400413197337109 ], [ -70.641940571447435, -33.400414704591036 ], [ -70.641911941176957, -33.40044664766836 ], [ -70.641924989719584, -33.400622332331082 ], [ -70.641930629301939, -33.40068989513528 ] ] ] ] } },
{ "type": "Feature", "properties": { "GlobalID": "d3090a70-b69d-4b2d-afd8-420dcb86d6d9", "ROL": "4336-26", "ID": "MUN-06101-0022" }, "geometry": { "type": "MultiPolygon", "coordinates": [ [ [ [ -70.641380531657617, -33.398595904190238 ], [ -70.641398741045535, -33.398992469772566 ], [ -70.641247330730039, -33.39899898214091 ], [ -70.641140933153423, -33.399004898866934 ], [ -70.64083811345786, -33.399017922778214 ], [ -70.640728355657274, -33.399023883594538 ], [ -70.640414871448769, -33.39904155668269 ], [ -70.640417649445936, -33.399082102439152 ], [ -70.64041984035677, -33.399127165123822 ], [ -70.640425236461596, -33.399253350403413 ], [ -70.640432059883125, -33.399384025971806 ], [ -70.640435007365056, -33.399433587814904 ], [ -70.640443093286862, -33.399577774179889 ], [ -70.640449917856458, -33.399708449724919 ], [ -70.640452026559359, -33.399767040986468 ], [ -70.640461371478722, -33.39990670152887 ], [ -70.640471472995586, -33.400050861227015 ], [ -70.640475848922563, -33.400104913339014 ], [ -70.640488220183514, -33.400262570510343 ], [ -70.640505687665268, -33.400262339522385 ], [ -70.640589998805723, -33.400243187908671 ], [ -70.640680020964183, -33.40022396070809 ], [ -70.640766767626076, -33.400209285929151 ], [ -70.640861156033907, -33.400190000849896 ], [ -70.640950169794195, -33.400170786792827 ], [ -70.641038848137541, -33.400151577109419 ], [ -70.641125509889335, -33.400132394040554 ], [ -70.641216623771484, -33.400117661175742 ], [ -70.641309919990391, -33.400093881043162 ], [ -70.641442852721966, -33.400069576397946 ], [ -70.641574866751924, -33.400067829587314 ], [ -70.641669509188517, -33.400062068027665 ], [ -70.641760877288419, -33.400060858892374 ], [ -70.641846870789237, -33.400059720821261 ], [ -70.641944620670671, -33.400058427089284 ], [ -70.642073526088481, -33.400052211728664 ], [ -70.64214675491057, -33.400051242409468 ], [ -70.64222065555316, -33.400050264153656 ], [ -70.642302618079881, -33.400049179127578 ], [ -70.642386175867259, -33.400043563764434 ], [ -70.642493667687489, -33.400042140625224 ], [ -70.642572186234432, -33.400036591856178 ], [ -70.642718307362927, -33.400034657042021 ], [ -70.64269750705499, -33.399732818554988 ], [ -70.642693210616144, -33.399665238000125 ], [ -70.642734863510455, -33.399664686447146 ], [ -70.642727852978638, -33.399452848611382 ], [ -70.642717326560415, -33.399304185610788 ], [ -70.642688797188242, -33.398984412776827 ], [ -70.642670740708297, -33.398542753821864 ], [ -70.642052005368228, -33.398568981659245 ], [ -70.641380531657617, -33.398595904190238 ] ] ] ] } },
{ "type": "Feature", "properties": { "GlobalID": "2adf913f-b5eb-4b24-8e25-067faf420f0a", "ROL": "6043-58", "ID": "MUN-06101-0045" }, "geometry": { "type": "MultiPolygon", "coordinates": [ [ [ [ -70.640077400780399, -33.391935060286919 ], [ -70.639846737909977, -33.391960655027702 ], [ -70.639581563223416, -33.391991214586739 ], [ -70.639533280953572, -33.39199636179265 ], [ -70.6394509080734, -33.392010977794165 ], [ -70.639291200986136, -33.392040143060711 ], [ -70.639417880299533, -33.392381166237158 ], [ -70.639489002830103, -33.392375717258872 ], [ -70.63973696575286, -33.392358912866008 ], [ -70.640004410831622, -33.392341850458202 ], [ -70.640303679391465, -33.392319857578308 ], [ -70.640304006523834, -33.39226574321134 ], [ -70.640304327825447, -33.39217555555917 ], [ -70.640304733829595, -33.39208987595628 ], [ -70.640303209247222, -33.392008731046396 ], [ -70.640302858798137, -33.39191855227179 ], [ -70.640304619988555, -33.391905001476381 ], [ -70.640077400780399, -33.391935060286919 ] ] ] ] } },
{ "type": "Feature", "properties": { "GlobalID": "9bbef184-88ad-40c8-9902-de0face8696e", "ROL": "6936-1", "ID": "MUN-06101-0061" }, "geometry": { "type": "MultiPolygon", "coordinates": [ [ [ [ -70.640179365678776, -33.38448091065213 ], [ -70.640873690022374, -33.386193547461943 ], [ -70.64151190794901, -33.386009488058335 ], [ -70.640846233452876, -33.38436901341278 ], [ -70.64079593569727, -33.384356316931374 ], [ -70.640179365678776, -33.38448091065213 ] ] ] ] } },
{ "type": "Feature", "properties": { "GlobalID": "67ec3ff7-d89b-426f-b9d7-4dac7bed94e2", "ROL": "6501-2", "ID": "MUN-06101-0047" }, "geometry": { "type": "MultiPolygon", "coordinates": [ [ [ [ -70.657126053658729, -33.384423371600199 ], [ -70.656231020121453, -33.384471112434284 ], [ -70.656261904768499, -33.384749874070579 ], [ -70.656091699720889, -33.384773621173601 ], [ -70.656175510975174, -33.385668483586549 ], [ -70.656986723294139, -33.386149190480225 ], [ -70.656995131118947, -33.385543008391821 ], [ -70.657126053658729, -33.384423371600199 ] ] ] ] } },
{ "type": "Feature", "properties": { "GlobalID": "c0e3e20a-d928-4404-9386-885960e685b6", "ROL": "6961-1", "ID": "MUN-06101-0066" }, "geometry": { "type": "MultiPolygon", "coordinates": [ [ [ [ -70.631251493925433, -33.391993945283318 ], [ -70.630971963486516, -33.392155441403439 ], [ -70.631451220325246, -33.392721806019914 ], [ -70.631565938670093, -33.392945756363574 ], [ -70.632083605562272, -33.392672906292148 ], [ -70.631873993638408, -33.392369039391667 ], [ -70.631409466928886, -33.391716199579371 ], [ -70.631148202767449, -33.391878064638561 ], [ -70.631251493925433, -33.391993945283318 ] ] ] ] } },
{ "type": "Feature", "properties": { "GlobalID": "b60ea7be-6017-44b1-8e9d-fcdb19a20242", "ROL": "78-2", "ID": "MUN-06101-0070" }, "geometry": { "type": "MultiPolygon", "coordinates": [ [ [ [ -70.641388921722751, -33.43390638830617 ], [ -70.640296672894863, -33.434269128481688 ], [ -70.639249157419158, -33.434615986287696 ], [ -70.639087136158707, -33.434665090916262 ], [ -70.63888915881499, -33.434697592667995 ], [ -70.638868956545807, -33.434706398206522 ], [ -70.63887476951615, -33.434744744683449 ], [ -70.638896096442735, -33.434795694773051 ], [ -70.638922031471736, -33.434820967507356 ], [ -70.640463030516713, -33.43445050742816 ], [ -70.642288129161528, -33.434025033868416 ], [ -70.642343643721588, -33.433998682140889 ], [ -70.642242625097609, -33.433684691416111 ], [ -70.642220634135796, -33.433673714331178 ], [ -70.64160791833983, -33.433864032316244 ], [ -70.641602937426953, -33.433847023946456 ], [ -70.641388921722751, -33.43390638830617 ] ] ] ] } },
{ "type": "Feature", "properties": { "GlobalID": "e672fc60-21c7-4497-9c48-2e8f3db428b4", "ROL": "5190-3", "ID": "MUN-06101-0036" }, "geometry": { "type": "MultiPolygon", "coordinates": [ [ [ [ -70.623726216576301, -33.401141435617568 ], [ -70.623605407504186, -33.401110037569538 ], [ -70.6234755949434, -33.401444929630834 ], [ -70.623524823292158, -33.401513824132159 ], [ -70.623594107745447, -33.401481353118186 ], [ -70.623726216576301, -33.401141435617568 ] ] ] ] } },
{ "type": "Feature", "properties": { "GlobalID": "cb9059d7-5233-4662-b703-8fafb28bb4f0", "ROL": "5190-43", "ID": "MUN-06101-0037" }, "geometry": { "type": "MultiPolygon", "coordinates": [ [ [ [ -70.623605407504186, -33.401110037569538 ], [ -70.623489381336071, -33.401079003377326 ], [ -70.623386545168984, -33.401320304211332 ], [ -70.6234755949434, -33.401444929630834 ], [ -70.623605407504186, -33.401110037569538 ] ] ] ] } },
{ "type": "Feature", "properties": { "GlobalID": "14d796b2-2b52-45f1-8c6e-e76ebeb34ae1", "ROL": "5190-44", "ID": "MUN-06101-0038" }, "geometry": { "type": "MultiPolygon", "coordinates": [ [ [ [ -70.623489381336071, -33.401079003377326 ], [ -70.623424983254623, -33.401059703626025 ], [ -70.623259876664463, -33.401143029388564 ], [ -70.623386545168984, -33.401320304211332 ], [ -70.623489381336071, -33.401079003377326 ] ] ] ] } },
{ "type": "Feature", "properties": { "GlobalID": "0612bda1-d4e1-4c4b-91dd-7a6e38ffa1bb", "ROL": "6961-2", "ID": "MUN-06101-0067" }, "geometry": { "type": "MultiPolygon", "coordinates": [ [ [ [ -70.630971963486516, -33.392155441403439 ], [ -70.631251493925433, -33.391993945283318 ], [ -70.631148202767449, -33.391878064638561 ], [ -70.630874047693581, -33.392039489868196 ], [ -70.630971963486516, -33.392155441403439 ] ] ] ] } },
{ "type": "Feature", "properties": { "GlobalID": "cfbf8318-83ad-403a-8ef6-2542b30a8f42", "ROL": "3293-8", "ID": "MUN-06101-0009" }, "geometry": { "type": "MultiPolygon", "coordinates": [ [ [ [ -70.623922960275479, -33.406297358934417 ], [ -70.623806976450084, -33.40636651490076 ], [ -70.624104360676029, -33.406691791427406 ], [ -70.624225636879814, -33.40661805671013 ], [ -70.624444671039356, -33.406488931615257 ], [ -70.62414829358174, -33.406163642723484 ], [ -70.623922960275479, -33.406297358934417 ] ] ] ] } },
{ "type": "Feature", "properties": { "GlobalID": "db15d042-37e4-45e0-a946-7b3b9d207eb9", "ROL": "4301-83", "ID": "MUN-06101-0021" }, "geometry": { "type": "MultiPolygon", "coordinates": [ [ [ [ -70.656802626651185, -33.400104377797589 ], [ -70.656456308070858, -33.400113511675478 ], [ -70.65645511736713, -33.400230639228269 ], [ -70.6568090813075, -33.400264567528303 ], [ -70.656802626651185, -33.400104377797589 ] ] ] ] } },
{ "type": "Feature", "properties": { "GlobalID": "941655a3-f554-4639-ad4e-6448a9c5e3ae", "ROL": "3738-2", "ID": "MUN-06101-0013" }, "geometry": { "type": "MultiPolygon", "coordinates": [ [ [ [ -70.641958666428977, -33.402363914970735 ], [ -70.641927970034061, -33.402059878875946 ], [ -70.641704163112664, -33.402071788914817 ], [ -70.641716399362451, -33.402155141175705 ], [ -70.641241377345509, -33.40218523062083 ], [ -70.641268082621423, -33.402435596661412 ], [ -70.641958666428977, -33.402363914970735 ] ] ] ] } },
{ "type": "Feature", "properties": { "GlobalID": "f4d9ebbe-3282-4cb5-9043-d92de1fdca44", "ROL": "1364-8", "ID": "MUN-06101-0001" }, "geometry": { "type": "MultiPolygon", "coordinates": [ [ [ [ -70.648637746469717, -33.418185828859151 ], [ -70.648444923055422, -33.418217493951367 ], [ -70.648503973399642, -33.418454447447537 ], [ -70.648586002189049, -33.418783608684642 ], [ -70.648657086228326, -33.419110334299774 ], [ -70.649527185492062, -33.41896953258712 ], [ -70.649870947586336, -33.418913901997463 ], [ -70.650142767921295, -33.418869910755632 ], [ -70.650122937230407, -33.418750149320886 ], [ -70.650150139698113, -33.41875218715068 ], [ -70.650116456107511, -33.418557994521713 ], [ -70.650006718937192, -33.41854378886724 ], [ -70.649903682047338, -33.418518520525957 ], [ -70.649826023110222, -33.418491393119304 ], [ -70.649755420982231, -33.4184535157829 ], [ -70.649656101004211, -33.418384815311626 ], [ -70.649569210518308, -33.418301488611682 ], [ -70.649505854391847, -33.418214804265638 ], [ -70.649486604875335, -33.418165292855043 ], [ -70.649438380287421, -33.418054347326027 ], [ -70.648637746469717, -33.418185828859151 ] ] ] ] } },
{ "type": "Feature", "properties": { "GlobalID": "689350ec-11c2-4a60-bc64-cc38ff30344e", "ROL": "2576-1", "ID": "MUN-06101-0003" }, "geometry": { "type": "MultiPolygon", "coordinates": [ [ [ [ -70.637453057746725, -33.412289122626284 ], [ -70.637383350701285, -33.412332471341976 ], [ -70.636998899946846, -33.412571551478308 ], [ -70.636849250212123, -33.412895020538052 ], [ -70.638412844539587, -33.413330498090787 ], [ -70.638449811444403, -33.413263832464345 ], [ -70.63845409896615, -33.413257139247989 ], [ -70.638459422296776, -33.413218512020237 ], [ -70.637621266334165, -33.412184516904851 ], [ -70.637453057746725, -33.412289122626284 ] ] ] ] } },
{ "type": "Feature", "properties": { "GlobalID": "209ea40d-0849-4073-85eb-f107047e8c6a", "ROL": "3738-5", "ID": "MUN-06101-0015" }, "geometry": { "type": "MultiPolygon", "coordinates": [ [ [ [ -70.641704163112664, -33.402071788914817 ], [ -70.641927970034061, -33.402059878875946 ], [ -70.641915585781007, -33.40177967570483 ], [ -70.641204164672516, -33.401836376457361 ], [ -70.641241377345509, -33.40218523062083 ], [ -70.641716399362451, -33.402155141175705 ], [ -70.641704163112664, -33.402071788914817 ] ] ] ] } },
{ "type": "Feature", "properties": { "GlobalID": "17e8a705-61eb-4ad8-a105-44e7d19bd62b", "ROL": "4835-24", "ID": "MUN-06101-0026" }, "geometry": { "type": "MultiPolygon", "coordinates": [ [ [ [ -70.64411643508717, -33.397263877973565 ], [ -70.644147482370244, -33.397591631696756 ], [ -70.644286587595786, -33.39758344188877 ], [ -70.644273715685387, -33.397470883413511 ], [ -70.644191840577491, -33.397476477705631 ], [ -70.644172984932467, -33.397260287761696 ], [ -70.64411643508717, -33.397263877973565 ] ] ] ] } },
{ "type": "Feature", "properties": { "GlobalID": "682754d7-8b03-4985-a839-67080a282dce", "ROL": "4931-7", "ID": "MUN-06101-0029" }, "geometry": { "type": "MultiPolygon", "coordinates": [ [ [ [ -70.645241247908871, -33.396618012705623 ], [ -70.645462037379787, -33.396603024318409 ], [ -70.645491313690684, -33.396601037068088 ], [ -70.645500901286397, -33.396600324613864 ], [ -70.645494433623782, -33.396547646881757 ], [ -70.645492523807931, -33.396547969817256 ], [ -70.64533040838181, -33.396575286459559 ], [ -70.645238516659632, -33.396591182431685 ], [ -70.645241247908871, -33.396618012705623 ] ] ] ] } },
{ "type": "Feature", "properties": { "GlobalID": "2815fc2e-7067-48eb-8180-56b21fead4ac", "ROL": "4931-33", "ID": "MUN-06101-0028" }, "geometry": { "type": "MultiPolygon", "coordinates": [ [ [ [ -70.645940845311074, -33.39654592224371 ], [ -70.645933636789096, -33.396476205224928 ], [ -70.645698252419265, -33.396513305284351 ], [ -70.645704034717369, -33.396563612159497 ], [ -70.645940845311074, -33.39654592224371 ] ] ] ] } },
{ "type": "Feature", "properties": { "GlobalID": "3dfc18fe-36f0-4186-abbb-e959a3d9686a", "ROL": "4931-32", "ID": "MUN-06101-0027" }, "geometry": { "type": "MultiPolygon", "coordinates": [ [ [ [ -70.645938086559312, -33.396519241155836 ], [ -70.646153117787222, -33.396503544246094 ], [ -70.646149792870517, -33.396442169967962 ], [ -70.645933636789096, -33.396476205224928 ], [ -70.645938086559312, -33.396519241155836 ] ] ] ] } },
{ "type": "Feature", "properties": { "GlobalID": "aaff3a65-874b-403e-91ee-b8845d8ae639", "ROL": "4945-13", "ID": "MUN-06101-0031" }, "geometry": { "type": "MultiPolygon", "coordinates": [ [ [ [ -70.63955329016801, -33.39821201384764 ], [ -70.639099775697275, -33.398288015937979 ], [ -70.639186426767537, -33.398899059909695 ], [ -70.639610038364026, -33.398855392898355 ], [ -70.63955329016801, -33.39821201384764 ] ] ] ] } },
{ "type": "Feature", "properties": { "GlobalID": "4c7331b6-9335-498d-9601-1b2c0f648064", "ROL": "4945-0", "ID": "MUN-06101-0030" }, "geometry": { "type": "MultiPolygon", "coordinates": [ [ [ [ -70.639610038364026, -33.398855392898355 ], [ -70.639186426767537, -33.398899059909695 ], [ -70.639226110352467, -33.399183526616696 ], [ -70.639643800564031, -33.399096841804791 ], [ -70.639610038364026, -33.398855392898355 ] ] ] ] } }
]
}
