{
"type": "FeatureCollection",
"name": "Limite_Urbano",
"crs": { "type": "name", "properties": { "name": "urn:ogc:def:crs:OGC:1.3:CRS84" } },
"features": [
{ "type": "Feature", "properties": { "OBJECTID": 1, "COD_REG": 13.0, "CINE_REG": "13", "NOM_REG": "METROPOLITANA DE SANTIAGO", "COD_PROV": 131.0, "CINE_PROV": "131", "NOM_PROV": "SANTIAGO", "COD_COM": 13127.0, "CINE_COM": "13127", "NOM_COM": "RECOLETA", "Shape_STAr": 15766279.055, "Shape_STLe": 18653.132563899999 }, "geometry": { "type": "MultiPolygon", "coordinates": [ [ [ [ -70.615286878691521, -33.400904512814812 ], [ -70.614799490281968, -33.401359396727351 ], [ -70.614584893080306, -33.401523252663218 ], [ -70.609924157168919, -33.403488876033329 ], [ -70.609769584557256, -33.404043379437269 ], [ -70.609528301339409, -33.404552723610394 ], [ -70.609574641392655, -33.405147154921913 ], [ -70.609607271080577, -33.405365517368764 ], [ -70.609946717585117, -33.405718591758827 ], [ -70.610112539958649, -33.40598348263844 ], [ -70.610173568324882, -33.406202378101128 ], [ -70.610488761583127, -33.406489579838357 ], [ -70.611019148645909, -33.407156906207668 ], [ -70.611398688557813, -33.407556811057738 ], [ -70.61183588509752, -33.407777221380847 ], [ -70.611985976340094, -33.407968264089696 ], [ -70.612649983759269, -33.408434540518826 ], [ -70.613146846366632, -33.408839948682306 ], [ -70.613255070118711, -33.408918173362913 ], [ -70.613935589187832, -33.409238032047064 ], [ -70.614330934711816, -33.409558819195254 ], [ -70.614470626331183, -33.409605790423839 ], [ -70.614658717607156, -33.409757916860983 ], [ -70.614637941209011, -33.409861267195126 ], [ -70.615391289479376, -33.410383090800593 ], [ -70.617347958229544, -33.41175877493923 ], [ -70.617960534858867, -33.412046407427752 ], [ -70.61830168771364, -33.412124745302961 ], [ -70.618215904460513, -33.412520507619305 ], [ -70.620066945882314, -33.413559697568644 ], [ -70.622158734165112, -33.415538423073649 ], [ -70.624684873120913, -33.418098825734241 ], [ -70.625615692204121, -33.418840020087465 ], [ -70.628514213432027, -33.420144101038112 ], [ -70.629084324479024, -33.420254663383055 ], [ -70.629558275879006, -33.420398862388659 ], [ -70.63007911138736, -33.420542473986529 ], [ -70.632127203399378, -33.421993822422749 ], [ -70.632570238865469, -33.422948002234435 ], [ -70.63240808180268, -33.424236554021284 ], [ -70.632635407339365, -33.424896997098301 ], [ -70.632949568903115, -33.425384039293903 ], [ -70.636143631796187, -33.430696536576896 ], [ -70.635269012893914, -33.43581293178039 ], [ -70.635397878535059, -33.435786958515287 ], [ -70.635536325035446, -33.435759053276556 ], [ -70.635687192066925, -33.435728644688602 ], [ -70.637570042835662, -33.43529079839508 ], [ -70.639341381344735, -33.434868408080042 ], [ -70.642525268179739, -33.434129847875361 ], [ -70.646217672404831, -33.433281926714649 ], [ -70.647878983908598, -33.432869426570917 ], [ -70.648438234172204, -33.432747454596132 ], [ -70.651472660595729, -33.432040532166951 ], [ -70.651571432450524, -33.431416079587002 ], [ -70.651594391035204, -33.431182441438366 ], [ -70.651575377145122, -33.431003102192122 ], [ -70.651477472598387, -33.430126263035625 ], [ -70.651376087460648, -33.428734459068934 ], [ -70.651310221398319, -33.428026922051814 ], [ -70.65117960765123, -33.426559325640262 ], [ -70.651139887524906, -33.426004831064141 ], [ -70.651042992400122, -33.424975330332494 ], [ -70.651016186487283, -33.424701764249853 ], [ -70.650868295876009, -33.422934736307063 ], [ -70.650651287102946, -33.421533703924204 ], [ -70.650573576631217, -33.421098767362793 ], [ -70.650027780849797, -33.417880817776592 ], [ -70.650450712827833, -33.417814335764525 ], [ -70.650463996867913, -33.417794593808821 ], [ -70.65046054715863, -33.417762665376223 ], [ -70.650649360765811, -33.417732024518045 ], [ -70.650962895838489, -33.417681142799992 ], [ -70.651601998485731, -33.417577103782598 ], [ -70.651974046798529, -33.417565897229046 ], [ -70.652527365964517, -33.417550459900539 ], [ -70.652572402109783, -33.417554632291996 ], [ -70.652573198921672, -33.417482547544012 ], [ -70.652578757046442, -33.417229321210179 ], [ -70.652581489202944, -33.416733009465482 ], [ -70.65258630395185, -33.416297685856456 ], [ -70.652587497049865, -33.416189813960301 ], [ -70.652591279264286, -33.415847846951621 ], [ -70.652570780395862, -33.415847165952584 ], [ -70.65257357004721, -33.415656913269636 ], [ -70.652579718206255, -33.415237638806474 ], [ -70.65249552202458, -33.415236447442055 ], [ -70.652497445805238, -33.414973516169979 ], [ -70.652501589475918, -33.414407310844275 ], [ -70.652504954455878, -33.413947470339473 ], [ -70.652507290260971, -33.413628287356246 ], [ -70.652508459685706, -33.412830186437098 ], [ -70.652502180785547, -33.412314912618328 ], [ -70.652490853696804, -33.411385353343384 ], [ -70.653382875118965, -33.41139735985773 ], [ -70.653408611365549, -33.409929781220683 ], [ -70.653387166861748, -33.40991368353923 ], [ -70.653026207840796, -33.409973532256451 ], [ -70.65301053455994, -33.409867082670026 ], [ -70.653403501961492, -33.409795273846129 ], [ -70.653418454063484, -33.409773599273571 ], [ -70.653418785769347, -33.409483741483648 ], [ -70.653032010852627, -33.409525614548528 ], [ -70.653030841376136, -33.408990846152662 ], [ -70.65303232317541, -33.408618595359563 ], [ -70.653033430091554, -33.408406695747914 ], [ -70.653033253726818, -33.407410799485859 ], [ -70.653033694437113, -33.407356305060354 ], [ -70.652964642755407, -33.407370792378288 ], [ -70.652779635786771, -33.40663790827832 ], [ -70.652758218295432, -33.406558358255097 ], [ -70.6535509782871, -33.406388026613115 ], [ -70.653717336142364, -33.406352386175534 ], [ -70.655138088502895, -33.40596397094248 ], [ -70.655879366892634, -33.405747919568803 ], [ -70.65711843180371, -33.405378191474362 ], [ -70.657478158358472, -33.403525782397836 ], [ -70.657589988296621, -33.403010661985959 ], [ -70.65780916787692, -33.401955482870655 ], [ -70.657946263979724, -33.401327301139005 ], [ -70.658067673875721, -33.40071006607436 ], [ -70.658121829115302, -33.40047152974325 ], [ -70.658148997874477, -33.400279561147613 ], [ -70.658162948807814, -33.400154740900014 ], [ -70.658147686887645, -33.399980283011509 ], [ -70.658002458207704, -33.399483206449567 ], [ -70.657756787836021, -33.398540964107191 ], [ -70.657721730098856, -33.398402561560388 ], [ -70.657684128722309, -33.398162262736555 ], [ -70.657665629252875, -33.397983467785664 ], [ -70.657659151109854, -33.397768833092449 ], [ -70.657534753600601, -33.396786972642857 ], [ -70.657339761286508, -33.394788558310992 ], [ -70.657083866952263, -33.393216905531617 ], [ -70.657129266152651, -33.391860293481578 ], [ -70.657211843330415, -33.390663998236931 ], [ -70.657302130060998, -33.389367951028966 ], [ -70.657257408779387, -33.388675520689183 ], [ -70.657114843561203, -33.387589137773674 ], [ -70.657015136797597, -33.386771559270073 ], [ -70.657055465452089, -33.386018921829127 ], [ -70.657178240918753, -33.384814686586004 ], [ -70.657378437609935, -33.383134106360259 ], [ -70.657488451259795, -33.381137855103965 ], [ -70.657532787725373, -33.380476788747195 ], [ -70.657558000185531, -33.380006866869337 ], [ -70.657613176824128, -33.378889503217621 ], [ -70.657623711723531, -33.378706129927494 ], [ -70.657611350596085, -33.378501955074697 ], [ -70.657591052081855, -33.378391510908756 ], [ -70.657561221134685, -33.378258287510185 ], [ -70.657416093480492, -33.377924262517794 ], [ -70.656990522881813, -33.377110670067673 ], [ -70.656661529978436, -33.376527490190931 ], [ -70.655728186568822, -33.376889721549084 ], [ -70.654467547201065, -33.377331767249103 ], [ -70.652786189341114, -33.377934472903014 ], [ -70.651925425878119, -33.378257082069467 ], [ -70.650879323517472, -33.378645145123315 ], [ -70.648945525557124, -33.379377143763762 ], [ -70.647253397077989, -33.3800161868514 ], [ -70.645581536961288, -33.380645395223915 ], [ -70.644141172710306, -33.381244789443024 ], [ -70.642628916289254, -33.382015009292395 ], [ -70.642079576182795, -33.382325793452885 ], [ -70.64102368301873, -33.382966570546799 ], [ -70.640293537762503, -33.383422210763463 ], [ -70.639536884287921, -33.383962882074577 ], [ -70.637970062116665, -33.385104092472837 ], [ -70.636811934289952, -33.385957376803518 ], [ -70.635460858595565, -33.386958270416663 ], [ -70.633683190333258, -33.388268279996474 ], [ -70.632896344627312, -33.388849156968035 ], [ -70.631679716716363, -33.389743251079658 ], [ -70.630912185882309, -33.390316464922847 ], [ -70.629996630336336, -33.391006152060719 ], [ -70.629581556588704, -33.391322754038001 ], [ -70.627492880789745, -33.392804743885847 ], [ -70.626196584123178, -33.393581479916882 ], [ -70.625466356093199, -33.393958617754549 ], [ -70.624855212880504, -33.39426032871539 ], [ -70.62368278604842, -33.394721292581551 ], [ -70.62346673478028, -33.394806235737576 ], [ -70.623655140029385, -33.395070470374201 ], [ -70.62340438167324, -33.395333593491245 ], [ -70.623000330922338, -33.395819100679809 ], [ -70.622946624756779, -33.395817550459206 ], [ -70.622697588687956, -33.39621698391452 ], [ -70.622926323803341, -33.396359329233071 ], [ -70.622559632676158, -33.396770972887452 ], [ -70.62248649817937, -33.396855445740108 ], [ -70.619956724125615, -33.397575705824131 ], [ -70.619777997837119, -33.397427719457063 ], [ -70.619617275969517, -33.397472703732404 ], [ -70.619288814345396, -33.397674131123658 ], [ -70.618924860488974, -33.39789732131328 ], [ -70.618862699995375, -33.398023066654616 ], [ -70.618772929694003, -33.398091048828711 ], [ -70.618604764444726, -33.398226865475948 ], [ -70.618457936890607, -33.398286047693944 ], [ -70.618080730687637, -33.39841496616048 ], [ -70.617491553237343, -33.398637479504941 ], [ -70.617372283103663, -33.398976272020093 ], [ -70.617114284245986, -33.399054082883211 ], [ -70.616802596111171, -33.399338831398886 ], [ -70.616700750972015, -33.399458431015859 ], [ -70.61528952317785, -33.400902045224683 ], [ -70.615286928385018, -33.400904699749937 ], [ -70.615286878691521, -33.400904512814812 ] ] ] ] } }
]
}
