{
"type": "FeatureCollection",
"name": "PRC_Patrimonio",
"crs": { "type": "name", "properties": { "name": "urn:ogc:def:crs:OGC:1.3:CRS84" } },
"features": [
{ "type": "Feature", "properties": { "OBJECTID_1": 22, "OBJECTID": 21, "Shape_STAr": 0.0, "Shape_STLe": 0.0, "ZONA": "Z-S4", "CATEGORIA": "INM DE CONSERVACION HISTÓRICA", "NOMBRE": "IGLESIA ORTODOXA SAN NICOLAS", "DIRECCION": "EUSEBIO LILLO 72", "ETIQUETA": "ICH-9", "Shape_Leng": 102.97315352, "GlobalID": "{12D3BD5C-A91E-4607-908E-92F900FE2ECE}", "Shape_ST_1": 527.209169051, "Shape_ST_2": 102.97315351899999 }, "geometry": { "type": "MultiPolygon", "coordinates": [ [ [ [ -70.644907661266757, -33.428759301545732 ], [ -70.644903796161017, -33.428759663947325 ], [ -70.644899420101098, -33.428759965489462 ], [ -70.644889665740195, -33.428760634174004 ], [ -70.644855016573032, -33.428762993939877 ], [ -70.644845999941893, -33.428763771876604 ], [ -70.644870304576571, -33.429083952054434 ], [ -70.645020720399501, -33.429066392971109 ], [ -70.645005333178787, -33.428909727674153 ], [ -70.645028000978641, -33.428908912921607 ], [ -70.645019515421353, -33.428750988196938 ], [ -70.644954313073484, -33.428755781516031 ], [ -70.644907661266757, -33.428759301545732 ] ] ] ] } },
{ "type": "Feature", "properties": { "OBJECTID_1": 23, "OBJECTID": 23, "Shape_STAr": 0.0, "Shape_STLe": 0.0, "ZONA": "Z-S4", "CATEGORIA": "INM DE CONSERVACION HISTÓRICA", "NOMBRE": "BANCO DEL DESARROLLO", "DIRECCION": "RECOLETA 336", "ETIQUETA": "ICH-12", "Shape_Leng": 121.40882883, "GlobalID": "{397A3DB6-8FC4-4048-A390-B6FB694A1AF9}", "Shape_ST_1": 604.95337038699995, "Shape_ST_2": 121.408828826 }, "geometry": { "type": "MultiPolygon", "coordinates": [ [ [ [ -70.647594735131079, -33.429147591912191 ], [ -70.647089850431783, -33.429258454906872 ], [ -70.647125617044352, -33.429359010696018 ], [ -70.647626738003481, -33.429266593942124 ], [ -70.647594735131079, -33.429147591912191 ] ] ] ] } },
{ "type": "Feature", "properties": { "OBJECTID_1": 25, "OBJECTID": 25, "Shape_STAr": 0.0, "Shape_STLe": 0.0, "ZONA": "Z-S4", "CATEGORIA": "INM DE CONSERVACION HISTÓRICA", "NOMBRE": "BANCO SUDAMERICANO", "DIRECCION": "RECOLETA 402", "ETIQUETA": "ICH-10", "Shape_Leng": 159.40388409, "GlobalID": "{1795635D-D4BA-4A87-AE7C-FC02C0D38027}", "Shape_ST_1": 1227.4149372700001, "Shape_ST_2": 159.40388408800001 }, "geometry": { "type": "MultiPolygon", "coordinates": [ [ [ [ -70.647227707671874, -33.428151570656084 ], [ -70.647108701527529, -33.428194572397601 ], [ -70.647142704994522, -33.428299575090541 ], [ -70.646859690984243, -33.42838257857661 ], [ -70.646933696834097, -33.428622583985984 ], [ -70.647355716686505, -33.428468577965283 ], [ -70.647227707671874, -33.428151570656084 ] ] ] ] } },
{ "type": "Feature", "properties": { "OBJECTID_1": 28, "OBJECTID": 29, "Shape_STAr": 0.0, "Shape_STLe": 0.0, "ZONA": "Z-S4", "CATEGORIA": "INM DE CONSERVACION HISTÓRICA", "NOMBRE": "COLUMNA ORIENTE CEMENTERIO GENERAL", "DIRECCION": "PROFESOR ZAÑARTU CEMENTERIO GENERAL", "ETIQUETA": "ICH-2", "Shape_Leng": 218.95015558, "GlobalID": "{08F7B95F-BFA3-4902-AE89-8F1E8508B0B6}", "Shape_ST_1": 1182.0648494699999, "Shape_ST_2": 218.94833214499999 }, "geometry": { "type": "MultiPolygon", "coordinates": [ [ [ [ -70.650133014152701, -33.418574189301566 ], [ -70.650121613837101, -33.41857243451873 ], [ -70.650014798897232, -33.418551426275229 ], [ -70.649970223831914, -33.418541520214653 ], [ -70.649911822991626, -33.418522731081957 ], [ -70.649869388655375, -33.418505638690256 ], [ -70.649799987797749, -33.418476974715531 ], [ -70.649736178432889, -33.418442986777443 ], [ -70.649691856347303, -33.418416374477609 ], [ -70.649655471864079, -33.418388225378536 ], [ -70.649625960740536, -33.41836237108452 ], [ -70.649585404478046, -33.418324255428516 ], [ -70.649518326663653, -33.418237816287714 ], [ -70.649497583898338, -33.418194188431336 ], [ -70.649477247487937, -33.418141965245781 ], [ -70.649456551240036, -33.418070656926623 ], [ -70.649449663117466, -33.418063143412589 ], [ -70.649335687314746, -33.418084702342099 ], [ -70.649340891912047, -33.418129835500864 ], [ -70.649378957307135, -33.418240624885485 ], [ -70.649417832856599, -33.418310258437636 ], [ -70.649457530177969, -33.418363179175074 ], [ -70.649549804044213, -33.418457873149428 ], [ -70.649582278963322, -33.418486453949512 ], [ -70.649613244091896, -33.418510603395077 ], [ -70.649667753488728, -33.418537892764363 ], [ -70.649716254812915, -33.418563033608564 ], [ -70.649786287636502, -33.418595029596375 ], [ -70.649842430485506, -33.418614803862177 ], [ -70.649931716035766, -33.418641771169746 ], [ -70.650002001850353, -33.418657061798264 ], [ -70.650086374701004, -33.418665710572775 ], [ -70.650125395010207, -33.418664175045905 ], [ -70.650129117810039, -33.418663534815515 ], [ -70.650129804255627, -33.418618251173399 ], [ -70.65013037952734, -33.418580221517068 ], [ -70.650133014152701, -33.418574189301566 ] ] ] ] } },
{ "type": "Feature", "properties": { "OBJECTID_1": 29, "OBJECTID": 30, "Shape_STAr": 0.0, "Shape_STLe": 0.0, "ZONA": "Z-S4", "CATEGORIA": "INM DE CONSERVACION HISTÓRICA", "NOMBRE": "ACCESO CEMENTERIO GENERAL", "DIRECCION": "PROFESOR ZAÑARTU CEMENTERIO GENERAL", "ETIQUETA": "ICH-3", "Shape_Leng": 266.01536542000002, "GlobalID": "{DC8ACD41-92B4-4660-9D63-E2B8DEBDA5F6}", "Shape_ST_1": 2281.37746939, "Shape_ST_2": 266.01536542000002 }, "geometry": { "type": "MultiPolygon", "coordinates": [ [ [ [ -70.649808932317882, -33.417450989284035 ], [ -70.649852769442802, -33.417689795729594 ], [ -70.649720020286637, -33.417711604740113 ], [ -70.649716065292296, -33.417683024279022 ], [ -70.649637797457686, -33.417696950680153 ], [ -70.649660146669461, -33.417795437950296 ], [ -70.649721455145709, -33.41778746373771 ], [ -70.649730503943076, -33.417814545238791 ], [ -70.649756321600421, -33.417825655041646 ], [ -70.649897578239447, -33.41780230070929 ], [ -70.649919494997974, -33.417787692611242 ], [ -70.649919467930545, -33.41778626176886 ], [ -70.649920931549062, -33.41777335696645 ], [ -70.650075788090646, -33.417746959103219 ], [ -70.650081232812781, -33.417764066503416 ], [ -70.65012252030634, -33.417780697021257 ], [ -70.650236522561414, -33.417760568227735 ], [ -70.650241562181151, -33.417756206662013 ], [ -70.650248199692768, -33.417746096319561 ], [ -70.650249553878737, -33.417727467258779 ], [ -70.650380650817837, -33.417708542073754 ], [ -70.650398070627531, -33.417726922209681 ], [ -70.650557151153819, -33.417697230875632 ], [ -70.650566671094026, -33.417684470459818 ], [ -70.650555663084731, -33.417574500956654 ], [ -70.650351365432613, -33.417604421533063 ], [ -70.650331290430657, -33.417626163013885 ], [ -70.650287241205092, -33.417373997181144 ], [ -70.649808932317882, -33.417450989284035 ] ] ] ] } },
{ "type": "Feature", "properties": { "OBJECTID_1": 33, "OBJECTID": 49, "Shape_STAr": 0.0, "Shape_STLe": 0.0, "ZONA": "Z-S4", "CATEGORIA": "INM DE CONSERVACION HISTÓRICA", "NOMBRE": "ESCUELA RAFAEL SANHUEZA", "DIRECCION": "EUSEBIO LILLO 479", "ETIQUETA": "ICH-13", "Shape_Leng": 392.31275914000003, "GlobalID": "{9C143FA2-D3A2-4712-8EEC-95F562A0ECC0}", "Shape_ST_1": 7715.8958798100002, "Shape_ST_2": 392.31275913600001 }, "geometry": { "type": "MultiPolygon", "coordinates": [ [ [ [ -70.644358508114038, -33.428310308376908 ], [ -70.644397709233488, -33.428457487305138 ], [ -70.644423117388982, -33.428552355496166 ], [ -70.644404771517415, -33.428590537802613 ], [ -70.64440203434188, -33.428596300710844 ], [ -70.644407583303888, -33.428618895486025 ], [ -70.644537477979767, -33.428610730222289 ], [ -70.644667954947366, -33.428603273151552 ], [ -70.644852716583856, -33.428592232586809 ], [ -70.645098595607493, -33.428577716041644 ], [ -70.645100079525406, -33.428577755875807 ], [ -70.645094245933365, -33.42852498161816 ], [ -70.645086047340314, -33.428452433682637 ], [ -70.645078990750449, -33.428387625417344 ], [ -70.645034963856702, -33.428391907884837 ], [ -70.644982696626911, -33.428396896660402 ], [ -70.644979312594174, -33.428360792663007 ], [ -70.644973123344201, -33.42829668803347 ], [ -70.644948525291284, -33.428047262879183 ], [ -70.644991679074053, -33.428041917949827 ], [ -70.644965116864029, -33.427901013316138 ], [ -70.644964112131802, -33.427898780189629 ], [ -70.644977071637484, -33.427897892224784 ], [ -70.644963792202134, -33.427854689531813 ], [ -70.644856143831873, -33.427490132929947 ], [ -70.644855424435193, -33.427490139766832 ], [ -70.644803217075591, -33.427491946012992 ], [ -70.64452572959425, -33.427505170340403 ], [ -70.644485362666259, -33.427507375855896 ], [ -70.644274130951374, -33.427518051673843 ], [ -70.644147607870408, -33.427523784791802 ], [ -70.644171448930052, -33.427611038953529 ], [ -70.64420238288497, -33.427727308286684 ], [ -70.644243723294849, -33.427882333687229 ], [ -70.644279835918169, -33.428016669196388 ], [ -70.644322096782588, -33.42817526080983 ], [ -70.644358508114038, -33.428310308376908 ] ] ] ] } },
{ "type": "Feature", "properties": { "OBJECTID_1": 39, "OBJECTID": 37, "Shape_STAr": 0.0, "Shape_STLe": 0.0, "ZONA": "Z-S4", "CATEGORIA": "INM DE CONSERVACION HISTÓRICA", "NOMBRE": "EX CHACRA EL TILO", "DIRECCION": "EL GUANACO 2531", "ETIQUETA": "ICH-14", "Shape_Leng": 278.36029228000001, "GlobalID": "{8CCAB2A5-C5E1-4217-B138-76159797221E}", "Shape_ST_1": 4825.3585172100002, "Shape_ST_2": 278.360292281 }, "geometry": { "type": "MultiPolygon", "coordinates": [ [ [ [ -70.658186030824425, -33.399840827379741 ], [ -70.658099026951248, -33.399856828090002 ], [ -70.657840013515354, -33.399851829668002 ], [ -70.657293986106552, -33.399908834270171 ], [ -70.657294986719535, -33.400039836954441 ], [ -70.657297987909971, -33.400106838898139 ], [ -70.657302989576493, -33.400319842924709 ], [ -70.65813003437718, -33.400462840964536 ], [ -70.658186034571713, -33.400261836642606 ], [ -70.658218033621736, -33.399928828531927 ], [ -70.658208032992889, -33.399926828478108 ], [ -70.658186030824425, -33.399840827379741 ] ] ] ] } },
{ "type": "Feature", "properties": { "OBJECTID_1": 451, "OBJECTID": 34, "Shape_STAr": 0.0, "Shape_STLe": 0.0, "ZONA": "Z-S4", "CATEGORIA": "INM DE CONSERVACION HISTÓRICA", "NOMBRE": "CEMENTERIO CATOLICO", "DIRECCION": "RECOLETA 181", "ETIQUETA": "ICH-1", "Shape_Leng": 1470.2357521500001, "GlobalID": "{0D5322AC-FACD-423F-8FB2-366810B7C7DA}", "Shape_ST_1": 109607.707299, "Shape_ST_2": 1470.2357521500001 }, "geometry": { "type": "MultiPolygon", "coordinates": [ [ [ [ -70.640881502581664, -33.413223054745082 ], [ -70.64122160481692, -33.413258236354714 ], [ -70.641257715036986, -33.413950951840185 ], [ -70.642022664960166, -33.413935276352831 ], [ -70.64204071913079, -33.413899457402742 ], [ -70.642091107700907, -33.413869553843881 ], [ -70.642495762971649, -33.413855200924473 ], [ -70.642549847604442, -33.413879221904807 ], [ -70.642580186021348, -33.413923847632802 ], [ -70.642783470479046, -33.4139196798996 ], [ -70.642774566237691, -33.413758581166988 ], [ -70.643276436527429, -33.413750186080193 ], [ -70.643274659871622, -33.41365587362484 ], [ -70.643398889212335, -33.413654227657901 ], [ -70.643396440237026, -33.41358742273313 ], [ -70.643266893284107, -33.413591975405751 ], [ -70.643258123993206, -33.413335045496417 ], [ -70.643261203281, -33.413332734791901 ], [ -70.643236145200035, -33.412454607867701 ], [ -70.643209012687862, -33.411751464398762 ], [ -70.643199904762611, -33.411751585060379 ], [ -70.643191217537748, -33.41160202777823 ], [ -70.643153245901757, -33.411603074618796 ], [ -70.643145148533193, -33.411487854844729 ], [ -70.643146390293154, -33.411483388760608 ], [ -70.643134455676957, -33.411214675876714 ], [ -70.643130771768838, -33.411131727367525 ], [ -70.643126518609478, -33.411035967771923 ], [ -70.643122481596095, -33.41094506076962 ], [ -70.643118556967664, -33.410856694538786 ], [ -70.643115647796577, -33.410791184388543 ], [ -70.643112784232841, -33.410726725168388 ], [ -70.64310995389954, -33.410663002303252 ], [ -70.643106748141079, -33.410590821627721 ], [ -70.643102961289017, -33.410505543239431 ], [ -70.643097825134987, -33.410389900935449 ], [ -70.643092343679825, -33.410266485811498 ], [ -70.643086570076434, -33.410136464132449 ], [ -70.643080537920412, -33.410000648904536 ], [ -70.643077425923238, -33.409930588085224 ], [ -70.643030857203726, -33.409945186042471 ], [ -70.642954048759407, -33.409974693190001 ], [ -70.642873590181296, -33.410005602285295 ], [ -70.642792798457407, -33.410036639292365 ], [ -70.642719010054719, -33.410064986223766 ], [ -70.642644148654725, -33.410093744127536 ], [ -70.642567135168463, -33.410124996994341 ], [ -70.642413635176084, -33.410187287285879 ], [ -70.642334666483563, -33.410219333358519 ], [ -70.642257813895782, -33.41025051987593 ], [ -70.642189980898863, -33.410278046342214 ], [ -70.642118353033609, -33.410307112837401 ], [ -70.641991770506749, -33.410358479496438 ], [ -70.641920266294605, -33.410387495543247 ], [ -70.641853698734195, -33.410414508168486 ], [ -70.641783414306786, -33.410442006442409 ], [ -70.641712877904084, -33.410469602704516 ], [ -70.641634800931286, -33.410500148514444 ], [ -70.641549927404498, -33.410533353542 ], [ -70.641465704959501, -33.410566303696221 ], [ -70.641384825736694, -33.410597946087279 ], [ -70.641308189615344, -33.410627928823565 ], [ -70.641222867500147, -33.410661309111084 ], [ -70.641147732099284, -33.410690703738773 ], [ -70.641140573945535, -33.410693402938541 ], [ -70.641066473485012, -33.410721339992229 ], [ -70.640902086468145, -33.410783317960437 ], [ -70.640822194415477, -33.410813439970433 ], [ -70.640737534788158, -33.41084535831493 ], [ -70.640650236682504, -33.410878271050962 ], [ -70.640563267387179, -33.410911060335685 ], [ -70.640479626197262, -33.410942594383677 ], [ -70.640312177074364, -33.411005725842656 ], [ -70.64023381467868, -33.411035269918521 ], [ -70.640149833697492, -33.411066931791758 ], [ -70.640115900472196, -33.411079725665296 ], [ -70.640082055270142, -33.411143419542562 ], [ -70.640038121243265, -33.411226099597599 ], [ -70.639995677488955, -33.411305974175448 ], [ -70.639956900900927, -33.411378947235129 ], [ -70.639916135353886, -33.411455663027589 ], [ -70.639873861727807, -33.411535217870835 ], [ -70.639859244613547, -33.411562724895717 ], [ -70.639842801668081, -33.411616265781241 ], [ -70.639841174329518, -33.411621566617804 ], [ -70.63975970816449, -33.411774301945002 ], [ -70.639620368815542, -33.412035539568251 ], [ -70.639228247092447, -33.412814410040433 ], [ -70.639420079162136, -33.41291433439325 ], [ -70.639600957407893, -33.413008553060649 ], [ -70.639576385967132, -33.413085232328413 ], [ -70.639733425657383, -33.413136332810957 ], [ -70.639742639631791, -33.413107577854184 ], [ -70.640013152034498, -33.413140814953962 ], [ -70.640012998277868, -33.413132636475289 ], [ -70.640117127741675, -33.413136712952799 ], [ -70.640115732894458, -33.413149003517418 ], [ -70.640405181164624, -33.413173995527636 ], [ -70.640417000154443, -33.413175016102663 ], [ -70.640808352181878, -33.413220550419041 ], [ -70.640809195939269, -33.413197146658874 ], [ -70.640880969286869, -33.41320396462423 ], [ -70.640881502581664, -33.413223054745082 ] ] ] ] } },
{ "type": "Feature", "properties": { "OBJECTID_1": 35, "OBJECTID": 56, "Shape_STAr": 0.0, "Shape_STLe": 0.0, "ZONA": "Z-S4", "CATEGORIA": "INM DE CONSERVACION HISTÓRICA", "NOMBRE": "BANCO DE CRÉDITO E INVERSIONES", "DIRECCION": "RECOLETA 284-29", "ETIQUETA": "ICH-4", "Shape_Leng": 82.56783714, "GlobalID": "{34B663DC-1F95-48CD-8818-59125BF3DD82}", "Shape_ST_1": 430.18031227300003, "Shape_ST_2": 82.567837143299997 }, "geometry": { "type": "MultiPolygon", "coordinates": [ [ [ [ -70.647248342760264, -33.42971087351544 ], [ -70.647307998880706, -33.429890947990685 ], [ -70.647497595764804, -33.429852444386817 ], [ -70.647437433386457, -33.429647590899904 ], [ -70.647257081892121, -33.429684419542689 ], [ -70.647248342760264, -33.42971087351544 ] ] ] ] } },
{ "type": "Feature", "properties": { "OBJECTID_1": 43, "OBJECTID": 0, "Shape_STAr": 0.0, "Shape_STLe": 0.0, "ZONA": "Z-S4", "CATEGORIA": "INM DE CONSERVACION HISTÓRICA", "NOMBRE": "CONJUNTO DE VIVIENDAS", "DIRECCION": "RECOLETA 401 AL 421", "ETIQUETA": "ICH-11", "Shape_Leng": 0.0, "GlobalID": "{47C6A4AA-CE0B-4A4E-B291-DE25A0A9794B}", "Shape_ST_1": 622.78477350599996, "Shape_ST_2": 125.96694974499999 }, "geometry": { "type": "MultiPolygon", "coordinates": [ [ [ [ -70.646475766683679, -33.428147978982821 ], [ -70.646023085192041, -33.428211851780276 ], [ -70.646043989593792, -33.428301648895022 ], [ -70.646295839123383, -33.428264303925857 ], [ -70.646323878145964, -33.428355199385486 ], [ -70.646519041919788, -33.428329940707926 ], [ -70.646475766683679, -33.428147978982821 ] ] ] ] } },
{ "type": "Feature", "properties": { "OBJECTID_1": 1, "OBJECTID": 1, "Shape_STAr": 0.0, "Shape_STLe": 0.0, "ZONA": "Z-S4", "CATEGORIA": "ZONA DE CONSERVACIÓN HISTÓRI", "NOMBRE": "ENTORNO IGLESIA RECOLETA DOMINICA", "DIRECCION": "AV RECOLETA, ENTRE DOMÍNICA Y SANTOS DUMONT", "ETIQUETA": "ZCH-16", "Shape_Leng": 1909.86469483, "GlobalID": "{CFE79846-BFB5-4EEB-A49B-66E3B9A0905A}", "Shape_ST_1": 87256.814866700021, "Shape_ST_2": 1909.86469483 }, "geometry": { "type": "MultiPolygon", "coordinates": [ [ [ [ -70.642275121276612, -33.423059818836613 ], [ -70.643191505067307, -33.426021885723785 ], [ -70.646445778824699, -33.424793220301297 ], [ -70.645525404385282, -33.422389516111473 ], [ -70.642275121276612, -33.423059818836613 ] ], [ [ -70.6441276451894, -33.423918112837697 ], [ -70.644918340764221, -33.423667510937513 ], [ -70.645069322388835, -33.424002467577495 ], [ -70.644919476714719, -33.424049959740714 ], [ -70.644947644762155, -33.42411244899904 ], [ -70.645236404694032, -33.424020929080882 ], [ -70.645292360820847, -33.424145067466235 ], [ -70.644933485237232, -33.42425881066292 ], [ -70.645172983977076, -33.424790139473366 ], [ -70.644721640137291, -33.424933188129131 ], [ -70.644767147124497, -33.425034144929803 ], [ -70.644393329642469, -33.425152620998389 ], [ -70.644347368420014, -33.425050655521304 ], [ -70.644558918332223, -33.424983608446652 ], [ -70.644444734189847, -33.42473029013874 ], [ -70.643884008239382, -33.42490800234733 ], [ -70.643723640270736, -33.424552214670342 ], [ -70.644311591260433, -33.424343987770264 ], [ -70.6441276451894, -33.423918112837697 ] ] ] ] } },
{ "type": "Feature", "properties": { "OBJECTID_1": 2, "OBJECTID": 2, "Shape_STAr": 0.0, "Shape_STLe": 0.0, "ZONA": "Z-S4", "CATEGORIA": "ZONA DE CONSERVACIÓN HISTÓRI", "NOMBRE": "ENTORNO DE IGLESIA RECOLETA FRANCISCANA", "DIRECCION": "AV RECOLETA ENTRE AV SANTA MARÍA Y SANTA FILOMENA", "ETIQUETA": "ZCH-15", "Shape_Leng": 1510.10511299, "GlobalID": "{95B2D2A0-D9BC-4806-8732-238B0430938C}", "Shape_ST_1": 52781.976431299998, "Shape_ST_2": 1622.8645746699999 }, "geometry": { "type": "MultiPolygon", "coordinates": [ [ [ [ -70.648384064812731, -33.429438712560938 ], [ -70.646568882487088, -33.429756191761271 ], [ -70.647459627034195, -33.432770718952007 ], [ -70.649218465954576, -33.4324188661938 ], [ -70.648801608588002, -33.430751235386346 ], [ -70.648672443961104, -33.430345216787011 ], [ -70.648185142538836, -33.430446012501001 ], [ -70.648235627078563, -33.430630492055485 ], [ -70.647517764783686, -33.43077170244532 ], [ -70.647290785747373, -33.43008020967563 ], [ -70.647991136854841, -33.429902232321027 ], [ -70.648101060283508, -33.430286298155288 ], [ -70.648621774992435, -33.430185944142394 ], [ -70.648384064812731, -33.429438712560938 ] ], [ [ -70.647497595764804, -33.429852444386817 ], [ -70.647307998880706, -33.429890947990685 ], [ -70.647248342760264, -33.42971087351544 ], [ -70.647257081892121, -33.429684419542689 ], [ -70.647437433386457, -33.429647590899904 ], [ -70.647497595764804, -33.429852444386817 ] ], [ [ -70.647464870917801, -33.431213131053227 ], [ -70.647327007081614, -33.431236437880351 ], [ -70.647303273365992, -33.431155148607992 ], [ -70.647437805239591, -33.431136181482124 ], [ -70.647464870917801, -33.431213131053227 ] ] ], [ [ [ -70.647700230966308, -33.430151486377937 ], [ -70.647775729822754, -33.430411998716266 ], [ -70.648054563010731, -33.430349117900519 ], [ -70.647981531704872, -33.430092811538891 ], [ -70.647700230966308, -33.430151486377937 ] ] ] ] } },
{ "type": "Feature", "properties": { "OBJECTID_1": 3, "OBJECTID": 3, "Shape_STAr": 0.0, "Shape_STLe": 0.0, "ZONA": "Z-S4", "CATEGORIA": "ZONA DE CONSERVACIÓN HISTÓRI", "NOMBRE": "CONJUNTO PIO NONO - DOMINICA", "DIRECCION": "PIO NONO CON DOMINICA", "ETIQUETA": "ZCH-18", "Shape_Leng": 614.07194129000004, "GlobalID": "{EF0D0DB4-237C-4290-A8F5-13E7FD72842C}", "Shape_ST_1": 17296.649100499999, "Shape_ST_2": 592.92008349499997 }, "geometry": { "type": "MultiPolygon", "coordinates": [ [ [ [ -70.637823036248292, -33.42960956420184 ], [ -70.637793206397646, -33.429570377798157 ], [ -70.637758404795775, -33.429553488952273 ], [ -70.637741735464317, -33.429545106560198 ], [ -70.637692739961665, -33.429525705081502 ], [ -70.63727774361783, -33.429828981092442 ], [ -70.636599932382339, -33.429334260576695 ], [ -70.636461191914677, -33.429444327419674 ], [ -70.636063402155358, -33.429776867600268 ], [ -70.636334149678632, -33.43012849424646 ], [ -70.636296360234368, -33.430329013327338 ], [ -70.636412115492959, -33.430443847955885 ], [ -70.636412335748261, -33.43057642392327 ], [ -70.636287048637385, -33.430673664885411 ], [ -70.636361578386371, -33.430730825037308 ], [ -70.63676316559804, -33.430654402058117 ], [ -70.637824662110887, -33.430478136134944 ], [ -70.637931599955081, -33.430441214998147 ], [ -70.637975525576394, -33.43041629620172 ], [ -70.63799899371277, -33.430393079732745 ], [ -70.638010485206493, -33.430368590265019 ], [ -70.638002850273296, -33.430325740595215 ], [ -70.637958385565184, -33.430140212912427 ], [ -70.637841518233998, -33.429682026483675 ], [ -70.637823036248292, -33.42960956420184 ] ] ] ] } },
{ "type": "Feature", "properties": { "OBJECTID_1": 4, "OBJECTID": 4, "Shape_STAr": 0.0, "Shape_STLe": 0.0, "ZONA": "Z-S4", "CATEGORIA": "ZONA DE CONSERVACIÓN HISTÓRI", "NOMBRE": "ENTORNO PARROQUIA SANTA FILOMENA", "DIRECCION": "SANTA FILOMENA S/N Y SAGRADO CORAZON", "ETIQUETA": "ZCH-17", "Shape_Leng": 971.93590405999998, "GlobalID": "{D1942C57-4F3E-40FE-80A9-AFFA83728244}", "Shape_ST_1": 36169.851188200002, "Shape_ST_2": 971.93590406400006 }, "geometry": { "type": "MultiPolygon", "coordinates": [ [ [ [ -70.64208530118951, -33.428575156813466 ], [ -70.642829103847163, -33.430444353242933 ], [ -70.644646497708862, -33.430162564553768 ], [ -70.644186876397228, -33.428425619374508 ], [ -70.64208530118951, -33.428575156813466 ] ], [ [ -70.643343982535583, -33.429395643809613 ], [ -70.643373881233046, -33.4293513429513 ], [ -70.643366663058032, -33.429270311920497 ], [ -70.64349617946462, -33.42925714218466 ], [ -70.643510009916326, -33.429326632345649 ], [ -70.643570014297751, -33.429369741657737 ], [ -70.64358137166721, -33.429428766402111 ], [ -70.643673442072696, -33.429421819410557 ], [ -70.643738222326448, -33.42975290302099 ], [ -70.643628636273789, -33.429762192514922 ], [ -70.643637267603765, -33.429797391904401 ], [ -70.643488403908194, -33.42981081822716 ], [ -70.643492537489479, -33.429848941446807 ], [ -70.643426731147017, -33.4298603127042 ], [ -70.643367902117944, -33.429577624230923 ], [ -70.643348537669752, -33.429576926728018 ], [ -70.643332687221985, -33.429460695394781 ], [ -70.643348583669493, -33.429458575555216 ], [ -70.643343982535583, -33.429395643809613 ] ] ] ] } },
{ "type": "Feature", "properties": { "OBJECTID_1": 5, "OBJECTID": 5, "Shape_STAr": 0.0, "Shape_STLe": 0.0, "ZONA": "Z-S4", "CATEGORIA": "ZONA DE CONSERVACIÓN HISTÓRI", "NOMBRE": "ENTORNO IGLESIA RECOLETA DOMINICA", "DIRECCION": "AV RECOLETA, ENTRE DOMÍNICA Y SANTOS DUMONT", "ETIQUETA": "ZCH-16", "Shape_Leng": 110.99516481000001, "GlobalID": "{CCF90C5E-5BEC-4125-A594-BB569C70BB34}", "Shape_ST_1": 615.38694250100002, "Shape_ST_2": 110.995164808 }, "geometry": { "type": "MultiPolygon", "coordinates": [ [ [ [ -70.644425139783706, -33.42425045318857 ], [ -70.644444945039396, -33.424293121232282 ], [ -70.644468480189374, -33.424285439396613 ], [ -70.644508857532898, -33.424372425563185 ], [ -70.644860267396709, -33.424257730170268 ], [ -70.644789271951382, -33.424104782821956 ], [ -70.644564928563625, -33.424178006099901 ], [ -70.644573239680128, -33.424202115402394 ], [ -70.644425139783706, -33.42425045318857 ] ] ] ] } },
{ "type": "Feature", "properties": { "OBJECTID_1": 6, "OBJECTID": 6, "Shape_STAr": 0.0, "Shape_STLe": 0.0, "ZONA": "Z-S4", "CATEGORIA": "ZONA DE CONSERVACIÓN HISTÓRI", "NOMBRE": "ENTORNO IGLESIA RECOLETA DOMINICA", "DIRECCION": "AV RECOLETA, ENTRE DOMÍNICA Y SANTOS DUMONT", "ETIQUETA": "ZCH-16", "Shape_Leng": 137.36666713, "GlobalID": "{22CEF307-A81D-4627-B3EB-90FD47EB5C10}", "Shape_ST_1": 1179.10108674, "Shape_ST_2": 137.366667132 }, "geometry": { "type": "MultiPolygon", "coordinates": [ [ [ [ -70.644535042270491, -33.424530719060677 ], [ -70.644673846561545, -33.424822527292918 ], [ -70.645011878605274, -33.424709469833793 ], [ -70.644873073395544, -33.424417662003989 ], [ -70.644535042270491, -33.424530719060677 ] ] ] ] } },
{ "type": "Feature", "properties": { "OBJECTID_1": 7, "OBJECTID": 7, "Shape_STAr": 0.0, "Shape_STLe": 0.0, "ZONA": "Z-S4", "CATEGORIA": "ZONA DE CONSERVACIÓN HISTÓRI", "NOMBRE": "ENTORNO IGLESIA RECOLETA DOMINICA", "DIRECCION": "AV RECOLETA, ENTRE DOMÍNICA Y SANTOS DUMONT", "ETIQUETA": "ZCH-16", "Shape_Leng": 59.99055756, "GlobalID": "{9CE789F2-7CD4-4FF8-9510-6CA3D121D6A5}", "Shape_ST_1": 224.893745626, "Shape_ST_2": 59.990557563899998 }, "geometry": { "type": "MultiPolygon", "coordinates": [ [ [ [ -70.644194126385216, -33.42452808173767 ], [ -70.644248209882548, -33.424657287559491 ], [ -70.644398475613357, -33.424613060649868 ], [ -70.644344391926438, -33.424483854898668 ], [ -70.644194126385216, -33.42452808173767 ] ] ] ] } },
{ "type": "Feature", "properties": { "OBJECTID_1": 8, "OBJECTID": 8, "Shape_STAr": 0.0, "Shape_STLe": 0.0, "ZONA": "Z-S4", "CATEGORIA": "ZONA DE CONSERVACIÓN HISTÓRI", "NOMBRE": "ENTORNO IGLESIA RECOLETA DOMINICA", "DIRECCION": "AV RECOLETA, ENTRE DOMÍNICA Y SANTOS DUMONT", "ETIQUETA": "ZCH-16", "Shape_Leng": 58.75738353, "GlobalID": "{5DC0656C-7D92-493E-8311-976DAC1F1FF5}", "Shape_ST_1": 215.761627438, "Shape_ST_2": 58.757383533000002 }, "geometry": { "type": "MultiPolygon", "coordinates": [ [ [ [ -70.643919303654812, -33.424623227446574 ], [ -70.643973239674395, -33.424748907392448 ], [ -70.644120621976043, -33.424704434062072 ], [ -70.644066684701855, -33.424578754199352 ], [ -70.643919303654812, -33.424623227446574 ] ] ] ] } },
{ "type": "Feature", "properties": { "OBJECTID_1": 9, "OBJECTID": 9, "Shape_STAr": 0.0, "Shape_STLe": 0.0, "ZONA": "Z-S4", "CATEGORIA": "INM DE CONSERVACION HISTÓRICA", "NOMBRE": "IGLESIA LICEO ALEMAN", "DIRECCION": "BELLAVISTA 37", "ETIQUETA": "ICH-8", "Shape_Leng": 152.71673473000001, "GlobalID": "{2494D216-286E-40D4-96E7-2C5FD1E2D03E}", "Shape_ST_1": 1374.96372243, "Shape_ST_2": 152.71673473199999 }, "geometry": { "type": "MultiPolygon", "coordinates": [ [ [ [ -70.636418678746011, -33.434350823434777 ], [ -70.636418610965677, -33.434765330223833 ], [ -70.636418610667036, -33.434768637234896 ], [ -70.636418611545636, -33.434769887158353 ], [ -70.636418590043746, -33.434770288756056 ], [ -70.636531995175375, -33.434773826022138 ], [ -70.636745723763823, -33.434780267592934 ], [ -70.636719240200662, -33.434349696221972 ], [ -70.636418678746011, -33.434350823434777 ] ] ] ] } },
{ "type": "Feature", "properties": { "OBJECTID_1": 10, "OBJECTID": 10, "Shape_STAr": 0.0, "Shape_STLe": 0.0, "ZONA": "ZS-5", "CATEGORIA": "SECTOR ESPECIAL", "NOMBRE": "CONJUNTO DE VIVIENDAS", "DIRECCION": "DARDIGNAC N° 60 AL 88", "ETIQUETA": "SE-5", "Shape_Leng": 320.43354872999998, "GlobalID": "{BE354670-FB46-49F2-8BC1-9BD5C777EFE2}", "Shape_ST_1": 4043.2121424299999, "Shape_ST_2": 328.35914165100002 }, "geometry": { "type": "MultiPolygon", "coordinates": [ [ [ [ -70.638366256546661, -33.433520093486507 ], [ -70.638195013441077, -33.433523066681232 ], [ -70.637968958053875, -33.433533211799215 ], [ -70.63791381349813, -33.433551836140701 ], [ -70.637385754021764, -33.433593815850131 ], [ -70.637265923840744, -33.43360334239982 ], [ -70.637240586814656, -33.433617993492504 ], [ -70.637219852760097, -33.433650479698407 ], [ -70.637220819730047, -33.433701961369366 ], [ -70.637763642839914, -33.433700467950487 ], [ -70.637770479115289, -33.433989774557972 ], [ -70.637771111274049, -33.434098754034785 ], [ -70.638048058615567, -33.434079121565212 ], [ -70.638048301639486, -33.434091538341576 ], [ -70.638366880152788, -33.434071099956924 ], [ -70.638366256546661, -33.433520093486507 ] ] ] ] } },
{ "type": "Feature", "properties": { "OBJECTID_1": 11, "OBJECTID": 11, "Shape_STAr": 0.0, "Shape_STLe": 0.0, "ZONA": "ZS-5", "CATEGORIA": "SECTOR ESPECIAL", "NOMBRE": "CONJUNTO DE VIVIENDAS", "DIRECCION": "ERNESTO PINTO LAGARRIGUE N° 154 AL 160", "ETIQUETA": "SE-7", "Shape_Leng": 221.39154089, "GlobalID": "{F97ECFAA-C062-4CD4-88EE-E8BBDAA12110}", "Shape_ST_1": 1903.2725373599999, "Shape_ST_2": 184.09426604000001 }, "geometry": { "type": "MultiPolygon", "coordinates": [ [ [ [ -70.637229749033466, -33.432848571547716 ], [ -70.637898348128331, -33.432816194864778 ], [ -70.637862396786787, -33.432535141261518 ], [ -70.637229820258156, -33.432563912735972 ], [ -70.637229749033466, -33.432848571547716 ] ] ] ] } },
{ "type": "Feature", "properties": { "OBJECTID_1": 12, "OBJECTID": 12, "Shape_STAr": 0.0, "Shape_STLe": 0.0, "ZONA": "ZS-5", "CATEGORIA": "SECTOR ESPECIAL", "NOMBRE": "CONJUNTO DE VIVIENDAS", "DIRECCION": "BELLAVISTA 125 AL 129", "ETIQUETA": "SE-10", "Shape_Leng": 140.33680839, "GlobalID": "{EED2544D-1279-43E1-8FC1-8AD5E03FE289}", "Shape_ST_1": 931.11411126200005, "Shape_ST_2": 146.125881362 }, "geometry": { "type": "MultiPolygon", "coordinates": [ [ [ [ -70.639703384046811, -33.433743538636676 ], [ -70.63962916456596, -33.433761967774551 ], [ -70.639550826654528, -33.433773024767099 ], [ -70.639587334478946, -33.434089455415588 ], [ -70.639605911130516, -33.434250469343972 ], [ -70.639620035077982, -33.43429244666887 ], [ -70.639802512314105, -33.434236537082668 ], [ -70.639703384046811, -33.433743538636676 ] ] ] ] } },
{ "type": "Feature", "properties": { "OBJECTID_1": 13, "OBJECTID": 13, "Shape_STAr": 0.0, "Shape_STLe": 0.0, "ZONA": "Z-S4", "CATEGORIA": "INM DE CONSERVACION HISTÓRICA", "NOMBRE": "INTERNATIONAL TENNIS CLUB", "DIRECCION": "BELLAVISTA 185", "ETIQUETA": "ICH-5", "Shape_Leng": 455.25550421000003, "GlobalID": "{3EB3294D-E2E4-4AD7-BC38-8FC6B35B49C2}", "Shape_ST_1": 6375.9230555499998, "Shape_ST_2": 455.25550421000003 }, "geometry": { "type": "MultiPolygon", "coordinates": [ [ [ [ -70.642267499876809, -33.433695732208257 ], [ -70.642242497823773, -33.433682731625552 ], [ -70.641629468037777, -33.433873740167172 ], [ -70.641624466824538, -33.433856739281751 ], [ -70.640970799052084, -33.434055802072663 ], [ -70.640300403587844, -33.43428875882833 ], [ -70.640312403493724, -33.434317758899518 ], [ -70.640318405767928, -33.434499763158165 ], [ -70.64115761336214, -33.43430835127559 ], [ -70.641634426305757, -33.43419760039481 ], [ -70.642088591552721, -33.434090641313801 ], [ -70.642275275622268, -33.434048779702586 ], [ -70.642324505670899, -33.434037739489867 ], [ -70.642360506789672, -33.434013738454937 ], [ -70.642344097512407, -33.433957631228061 ], [ -70.642267499876809, -33.433695732208257 ] ] ] ] } },
{ "type": "Feature", "properties": { "OBJECTID_1": 14, "OBJECTID": 15, "Shape_STAr": 0.0, "Shape_STLe": 0.0, "ZONA": "Z-S5", "CATEGORIA": "SECTOR ESPECIAL", "NOMBRE": "CONJUNTO DE VIVIENDAS", "DIRECCION": "A. LOPEZ DE BELLO 120 AL 146 Y B. NUÑEZ 127 AL 19", "ETIQUETA": "SE-11", "Shape_Leng": 335.28818773, "GlobalID": "{08A85CF7-22E7-477C-87BB-034522DD9CD8}", "Shape_ST_1": 4365.7059608899999, "Shape_ST_2": 322.03286431200002 }, "geometry": { "type": "MultiPolygon", "coordinates": [ [ [ [ -70.639685998885241, -33.431867038604722 ], [ -70.639651507945302, -33.431850151621418 ], [ -70.639629506773133, -33.4318388756896 ], [ -70.638986763170323, -33.431968267755465 ], [ -70.639020390644745, -33.432167539598524 ], [ -70.639234768508928, -33.432126766677868 ], [ -70.639285096391518, -33.432260676750431 ], [ -70.639353908310554, -33.432469505346297 ], [ -70.639432395444516, -33.432451287805755 ], [ -70.639467146265531, -33.432563532590677 ], [ -70.639351065580684, -33.43259075593862 ], [ -70.6393794901619, -33.432680260902494 ], [ -70.639812147431272, -33.432579650370933 ], [ -70.639906950203226, -33.432557604935575 ], [ -70.639779821057274, -33.432160273875432 ], [ -70.639685998885241, -33.431867038604722 ] ] ] ] } },
{ "type": "Feature", "properties": { "OBJECTID_1": 15, "OBJECTID": 16, "Shape_STAr": 0.0, "Shape_STLe": 0.0, "ZONA": "Z-S4", "CATEGORIA": "INM DE CONSERVACION HISTÓRICA", "NOMBRE": "VIVIENDA- COMERCIO", "DIRECCION": "LORETO 1 AL 93 Y DARDIGNAC 102 AL 156", "ETIQUETA": "ICH-6", "Shape_Leng": 226.95007448000001, "GlobalID": "{35E3B9A4-8C1B-45B2-95B3-CEA6EAC899AF}", "Shape_ST_1": 2022.62678992, "Shape_ST_2": 226.95007447699999 }, "geometry": { "type": "MultiPolygon", "coordinates": [ [ [ [ -70.642328291880801, -33.432659936663413 ], [ -70.642010372826903, -33.432726524760632 ], [ -70.642055481033793, -33.432823712652208 ], [ -70.64225949705471, -33.433437725963479 ], [ -70.642288046848179, -33.433515548055674 ], [ -70.642440605838232, -33.433465788164732 ], [ -70.642365538632205, -33.432914897900254 ], [ -70.642328291880801, -33.432659936663413 ] ] ] ] } },
{ "type": "Feature", "properties": { "OBJECTID_1": 16, "OBJECTID": 17, "Shape_STAr": 0.0, "Shape_STLe": 0.0, "ZONA": "ZS-5", "CATEGORIA": "SECTOR ESPECIAL", "NOMBRE": "CONJUNTO DE VIVIENDAS", "DIRECCION": "ANTONIA LOPEZ DE BELLO (ENTRE LORETO Y B. NUÑEZ)", "ETIQUETA": "SE-16", "Shape_Leng": 604.88442561, "GlobalID": "{8C1DAFAE-B4B4-4FDF-AD9F-6C76A04F775D}", "Shape_ST_1": 16305.647268000001, "Shape_ST_2": 604.88442560600004 }, "geometry": { "type": "MultiPolygon", "coordinates": [ [ [ [ -70.640009362849284, -33.431493695034391 ], [ -70.639701029233237, -33.431496398307551 ], [ -70.639711084901592, -33.431822452330799 ], [ -70.639769411517804, -33.431983818122049 ], [ -70.6398006874457, -33.432067936539731 ], [ -70.639821420598636, -33.432123696582934 ], [ -70.640130374284865, -33.432056706926652 ], [ -70.640220380861336, -33.43236171426517 ], [ -70.640626402013126, -33.432256708746571 ], [ -70.642108467291024, -33.431957527184913 ], [ -70.642195480736433, -33.431938691775031 ], [ -70.642221872380901, -33.431929222055956 ], [ -70.642153992379775, -33.43149219946627 ], [ -70.640787907302411, -33.431493154190058 ], [ -70.640009362849284, -33.431493695034391 ] ] ] ] } },
{ "type": "Feature", "properties": { "OBJECTID_1": 17, "OBJECTID": 18, "Shape_STAr": 0.0, "Shape_STLe": 0.0, "ZONA": "ZS-5", "CATEGORIA": "SECTOR ESPECIAL", "NOMBRE": "CONJUNTO DE VIVIENDAS", "DIRECCION": "GENERAL EKDAHL(ENTRE LORETO Y B. NUÑEZ)", "ETIQUETA": "SE-4", "Shape_Leng": 577.48962228000005, "GlobalID": "{351EC09D-53E6-4F15-8B3F-FCF73D83BD78}", "Shape_ST_1": 14785.9526965, "Shape_ST_2": 577.48962228200003 }, "geometry": { "type": "MultiPolygon", "coordinates": [ [ [ [ -70.642101470934747, -33.431491681155521 ], [ -70.642153992379775, -33.43149219946627 ], [ -70.642124132651333, -33.43129094966514 ], [ -70.642083494331089, -33.431059240839332 ], [ -70.642063398024561, -33.430931772874189 ], [ -70.642056970806337, -33.430873435728977 ], [ -70.642015460985647, -33.430872667843317 ], [ -70.641429300366994, -33.430871670821226 ], [ -70.641115414566627, -33.430871673439924 ], [ -70.63976834519498, -33.430964684411236 ], [ -70.639659512533115, -33.430988289624025 ], [ -70.639696905541214, -33.431394331535564 ], [ -70.639698487961695, -33.431414015572138 ], [ -70.639701029233237, -33.431496398307551 ], [ -70.640009362849284, -33.431493695034391 ], [ -70.64182456118057, -33.431492426025834 ], [ -70.642101470934747, -33.431491681155521 ] ] ] ] } },
{ "type": "Feature", "properties": { "OBJECTID_1": 18, "OBJECTID": 58, "Shape_STAr": 0.0, "Shape_STLe": 0.0, "ZONA": "Z-S3", "CATEGORIA": "MONUMENTO NAC ARQUEOLÓGICO", "NOMBRE": "PLAZOLETA PIEDRAS TACITAS", "DIRECCION": "AV RECOLETA CON CALLE LA UNIÓN", "ETIQUETA": "MN-7", "Shape_Leng": 173.63797559, "GlobalID": "{171B602C-3018-4654-BE65-ECA78167925F}", "Shape_ST_1": 1535.4816334499999, "Shape_ST_2": 173.63797559400001 }, "geometry": { "type": "MultiPolygon", "coordinates": [ [ [ [ -70.644559697051832, -33.416452852241136 ], [ -70.644491292045473, -33.416446600534549 ], [ -70.644414352751781, -33.416440461943544 ], [ -70.644263724783031, -33.416449617704757 ], [ -70.644147185774244, -33.416455935144945 ], [ -70.643919978119044, -33.416478035054432 ], [ -70.643863490638481, -33.416500259046792 ], [ -70.643864558383072, -33.416707835372634 ], [ -70.644554626037717, -33.4166366484124 ], [ -70.644559697051832, -33.416452852241136 ] ] ] ] } },
{ "type": "Feature", "properties": { "OBJECTID_1": 19, "OBJECTID": 59, "Shape_STAr": 0.0, "Shape_STLe": 0.0, "ZONA": "Z-S4", "CATEGORIA": "INM DE CONSERVACION HISTÓRICA", "NOMBRE": "ACCESO CEMENTERIO GENERAL", "DIRECCION": "PROFESOR ZAÑARTU CEMENTERIO GENERAL", "ETIQUETA": "ICH-3", "Shape_Leng": 154.70817481, "GlobalID": "{C80F37DF-9FB5-4803-9D23-632B1C643ECC}", "Shape_ST_1": 1001.03890863, "Shape_ST_2": 221.062781231 }, "geometry": { "type": "MultiPolygon", "coordinates": [ [ [ [ -70.650011943091087, -33.417418310895478 ], [ -70.649950344019217, -33.417385611216645 ], [ -70.649899142662633, -33.41719087143619 ], [ -70.650076975992647, -33.417160826647184 ], [ -70.650112907331263, -33.417285379962422 ], [ -70.650125884878406, -33.417294513270818 ], [ -70.650142495371497, -33.417360387310524 ], [ -70.650103517249605, -33.417403570535029 ], [ -70.650287241205092, -33.417373997181144 ], [ -70.650235892115447, -33.417089129832732 ], [ -70.649755911393768, -33.417165665983518 ], [ -70.649808932317882, -33.417450989284035 ], [ -70.650011943091087, -33.417418310895478 ] ] ] ] } },
{ "type": "Feature", "properties": { "OBJECTID_1": 20, "OBJECTID": 19, "Shape_STAr": 0.0, "Shape_STLe": 0.0, "ZONA": "Z-S5", "CATEGORIA": "SECTOR ESPECIAL", "NOMBRE": "VIVIENDA- COMERCIO", "DIRECCION": "PERU 502 Y RAPA NUI 208 Y 238", "ETIQUETA": "SE-15", "Shape_Leng": 350.30930293, "GlobalID": "{27F6A14C-33E9-417A-80DE-237C73CB7C33}", "Shape_ST_1": 4752.6935681300001, "Shape_ST_2": 350.30930292900001 }, "geometry": { "type": "MultiPolygon", "coordinates": [ [ [ [ -70.640510333593539, -33.425696059769969 ], [ -70.639806354345936, -33.425786979069066 ], [ -70.640077307307308, -33.426804272313255 ], [ -70.640372410159927, -33.426755018722943 ], [ -70.64025310924437, -33.426068325937599 ], [ -70.64055342955298, -33.426007958238586 ], [ -70.640510333593539, -33.425696059769969 ] ] ] ] } },
{ "type": "Feature", "properties": { "OBJECTID_1": 21, "OBJECTID": 20, "Shape_STAr": 0.0, "Shape_STLe": 0.0, "ZONA": "Z-S5", "CATEGORIA": "SECTOR ESPECIAL", "NOMBRE": "CONJUNTO DE EDIFICIOS", "DIRECCION": "SANTA MARIA 349 AL 383 Y 401-489", "ETIQUETA": "SE-8", "Shape_Leng": 306.49187117000002, "GlobalID": "{D780139F-BAD2-4E16-B84E-E718251C60DA}", "Shape_ST_1": 4967.3999400399998, "Shape_ST_2": 312.13325479600002 }, "geometry": { "type": "MultiPolygon", "coordinates": [ [ [ [ -70.645221390979984, -33.43294021212656 ], [ -70.64519609388411, -33.43298128694196 ], [ -70.645306242611241, -33.433291826228768 ], [ -70.645348029177839, -33.433308162980552 ], [ -70.646051717320901, -33.433142186764982 ], [ -70.646481849707897, -33.433040730724564 ], [ -70.646513256716844, -33.433009510859868 ], [ -70.646423133345721, -33.432692744823221 ], [ -70.646374087856913, -33.432668555202852 ], [ -70.645931774926282, -33.43277279685001 ], [ -70.6455709411416, -33.432857835210058 ], [ -70.645221390979984, -33.43294021212656 ] ] ] ] } },
{ "type": "Feature", "properties": { "OBJECTID_1": 24, "OBJECTID": 24, "Shape_STAr": 0.0, "Shape_STLe": 0.0, "ZONA": "Z-S5", "CATEGORIA": "SECTOR ESPECIAL", "NOMBRE": "COMERCIO", "DIRECCION": "RECOLETA 345", "ETIQUETA": "SE-12", "Shape_Leng": 155.25260979000001, "GlobalID": "{00D8007F-57F4-4D50-AFE0-811BC94BB214}", "Shape_ST_1": 763.45647246399994, "Shape_ST_2": 148.00649346700001 }, "geometry": { "type": "MultiPolygon", "coordinates": [ [ [ [ -70.646325717080501, -33.429119305631531 ], [ -70.646145396856497, -33.429154627081921 ], [ -70.646171662442669, -33.429246603046842 ], [ -70.646179367686273, -33.429285793404468 ], [ -70.646688295749968, -33.429190649767705 ], [ -70.646701602903264, -33.429189424228518 ], [ -70.646800523931887, -33.429180311547029 ], [ -70.646793901978867, -33.429162157313527 ], [ -70.646760218450993, -33.429069820069067 ], [ -70.646477775585268, -33.4291244445308 ], [ -70.64646720922596, -33.429107405004828 ], [ -70.646324252793519, -33.42913220948936 ], [ -70.646325717080501, -33.429119305631531 ] ] ] ] } },
{ "type": "Feature", "properties": { "OBJECTID_1": 26, "OBJECTID": 27, "Shape_STAr": 0.0, "Shape_STLe": 0.0, "ZONA": "Z-S5", "CATEGORIA": "SECTOR ESPECIAL", "NOMBRE": "CONJUNTO DE VIVIENDAS", "DIRECCION": "LASTRA 826 AL 898", "ETIQUETA": "SE-2", "Shape_Leng": 240.38620906, "GlobalID": "{9C24BBB3-F873-4F4D-A55A-CC0B703B5487}", "Shape_ST_1": 1893.85633222, "Shape_ST_2": 240.38620905799999 }, "geometry": { "type": "MultiPolygon", "coordinates": [ [ [ [ -70.651344536055035, -33.428733070177593 ], [ -70.650313682001453, -33.428952322931337 ], [ -70.650334115884405, -33.429108154585684 ], [ -70.651407452618159, -33.42890407817336 ], [ -70.651381386948131, -33.428741232460681 ], [ -70.651344536055035, -33.428733070177593 ] ] ] ] } },
{ "type": "Feature", "properties": { "OBJECTID_1": 27, "OBJECTID": 28, "Shape_STAr": 0.0, "Shape_STLe": 0.0, "ZONA": "Z-S5", "CATEGORIA": "SECTOR ESPECIAL", "NOMBRE": "CONJUNTO DE VIVIENDAS", "DIRECCION": "PASAJE LAMA OLIVOS S/N", "ETIQUETA": "SE-3", "Shape_Leng": 515.88590707000003, "GlobalID": "{95243370-5F3E-431D-846A-52EB84CA3B38}", "Shape_ST_1": 6063.7292689400001, "Shape_ST_2": 515.88590707499998 }, "geometry": { "type": "MultiPolygon", "coordinates": [ [ [ [ -70.647055668276138, -33.424746492564047 ], [ -70.647306958496372, -33.425240730480446 ], [ -70.646662034251577, -33.425415741776483 ], [ -70.646735659281319, -33.425600514626453 ], [ -70.648549748970524, -33.4251084909639 ], [ -70.648449960375615, -33.424930547567605 ], [ -70.647680563118158, -33.425128664119697 ], [ -70.647398684582086, -33.4246154873099 ], [ -70.647055668276138, -33.424746492564047 ] ] ] ] } },
{ "type": "Feature", "properties": { "OBJECTID_1": 32, "OBJECTID": 48, "Shape_STAr": 0.0, "Shape_STLe": 0.0, "ZONA": "Z-S3", "CATEGORIA": "MONUMENTO NACIONAL", "NOMBRE": "IGLESIA PARROQUIAL SANTA FILOMENA", "DIRECCION": "SANTA FILOMENA S/N", "ETIQUETA": "MN-6", "Shape_Leng": 188.11471604, "GlobalID": "{373C5ED3-F000-413E-A644-4CED3E6581A8}", "Shape_ST_1": 1602.5629341199999, "Shape_ST_2": 188.11471604299999 }, "geometry": { "type": "MultiPolygon", "coordinates": [ [ [ [ -70.643673442072696, -33.429421819410557 ], [ -70.64358137166721, -33.429428766402111 ], [ -70.643570014297751, -33.429369741657737 ], [ -70.643510009916326, -33.429326632345649 ], [ -70.64349617946462, -33.42925714218466 ], [ -70.643366663058032, -33.429270311920497 ], [ -70.643373881233046, -33.4293513429513 ], [ -70.643343982535583, -33.429395643809613 ], [ -70.643348583669493, -33.429458575555216 ], [ -70.643332687221985, -33.429460695394781 ], [ -70.643348537669752, -33.429576926728018 ], [ -70.643367902117944, -33.429577624230923 ], [ -70.643426731147017, -33.4298603127042 ], [ -70.643492537489479, -33.429848941446807 ], [ -70.643488403908194, -33.42981081822716 ], [ -70.643637267603765, -33.429797391904401 ], [ -70.643628636273789, -33.429762192514922 ], [ -70.643738222326448, -33.42975290302099 ], [ -70.643673442072696, -33.429421819410557 ] ] ] ] } },
{ "type": "Feature", "properties": { "OBJECTID_1": 34, "OBJECTID": 55, "Shape_STAr": 0.0, "Shape_STLe": 0.0, "ZONA": "Z-S3", "CATEGORIA": "MONUMENTO NACIONAL", "NOMBRE": "CASA DEL PILAR", "DIRECCION": "RECOLETA 181", "ETIQUETA": "MN-1", "Shape_Leng": 43.94073273, "GlobalID": "{62A7CA43-4A74-4C09-8BB9-1F865A96EC9A}", "Shape_ST_1": 116.65840630300001, "Shape_ST_2": 43.940732726999997 }, "geometry": { "type": "MultiPolygon", "coordinates": [ [ [ [ -70.647303273365992, -33.431155148607992 ], [ -70.647327007081614, -33.431236437880351 ], [ -70.647464870917801, -33.431213131053227 ], [ -70.647437805239591, -33.431136181482124 ], [ -70.647303273365992, -33.431155148607992 ] ] ] ] } },
{ "type": "Feature", "properties": { "OBJECTID_1": 38, "OBJECTID": 36, "Shape_STAr": 0.0, "Shape_STLe": 0.0, "ZONA": "Z-S5", "CATEGORIA": "SECTOR ESPECIAL", "NOMBRE": "POBLACION DOCTOR OSTORNOL", "DIRECCION": "DOCTOR OSTORNOL (ENTRE RECOLETA Y GAVILAN)", "ETIQUETA": "SE-13", "Shape_Leng": 381.96035622, "GlobalID": "{CA23D200-E164-42FE-8AD1-526B528B4588}", "Shape_ST_1": 8282.2556743299992, "Shape_ST_2": 388.38717214899998 }, "geometry": { "type": "MultiPolygon", "coordinates": [ [ [ [ -70.642900517663548, -33.409267002959183 ], [ -70.64292232340361, -33.409170141534275 ], [ -70.642691709793567, -33.409188603631165 ], [ -70.642541301490667, -33.409249214487446 ], [ -70.642525674108072, -33.409222366485281 ], [ -70.642267507849155, -33.409270876426994 ], [ -70.642308372517846, -33.409513829849942 ], [ -70.64222522995027, -33.409541985597215 ], [ -70.641929181778806, -33.409577468917391 ], [ -70.641984517869844, -33.409796977163865 ], [ -70.642257813895782, -33.41025051987593 ], [ -70.643030857203726, -33.409945186042471 ], [ -70.643050151537196, -33.409939138002208 ], [ -70.643018355298807, -33.409624439517899 ], [ -70.643069549004437, -33.409603860682765 ], [ -70.643039401179976, -33.409407293774905 ], [ -70.642942170983147, -33.409248414626404 ], [ -70.642900517663548, -33.409267002959183 ] ] ] ] } },
{ "type": "Feature", "properties": { "OBJECTID_1": 41, "OBJECTID": 43, "Shape_STAr": 0.0, "Shape_STLe": 0.0, "ZONA": "Z-S3", "CATEGORIA": "MONUMENTO NACIONAL", "NOMBRE": "IGLESIA Y CONVENTO DE LA RECOLETA FRANCISCANA", "DIRECCION": "RECOLETA 220", "ETIQUETA": "MN-2", "Shape_Leng": 508.33643468999998, "GlobalID": "{5B88DBE0-CB29-4699-8C12-1A23A1AD61C7}", "Shape_ST_1": 5651.8810664700004, "Shape_ST_2": 508.33643468899999 }, "geometry": { "type": "MultiPolygon", "coordinates": [ [ [ [ -70.647290785747373, -33.43008020967563 ], [ -70.647517764783686, -33.43077170244532 ], [ -70.648235627078563, -33.430630492055485 ], [ -70.648185142538836, -33.430446012501001 ], [ -70.648672443961104, -33.430345216787011 ], [ -70.648621774992435, -33.430185944142394 ], [ -70.648101060283508, -33.430286298155288 ], [ -70.647991136854841, -33.429902232321027 ], [ -70.647290785747373, -33.43008020967563 ] ], [ [ -70.647700230966308, -33.430151486377937 ], [ -70.647981531704872, -33.430092811538891 ], [ -70.648054563010731, -33.430349117900519 ], [ -70.647775729822754, -33.430411998716266 ], [ -70.647700230966308, -33.430151486377937 ] ] ] ] } },
{ "type": "Feature", "properties": { "OBJECTID_1": 42, "OBJECTID": 44, "Shape_STAr": 0.0, "Shape_STLe": 0.0, "ZONA": "Z-S5", "CATEGORIA": "SECTOR ESPECIAL", "NOMBRE": "CONJUNTO DE VIVIENDAS", "DIRECCION": "CALICHE, TABARE, A. FIGUEROA, SANTOS DUMONT", "ETIQUETA": "SE-1", "Shape_Leng": 839.11257891000002, "GlobalID": "{7CD20DA1-CA90-4F53-9ECC-FDC9585504C6}", "Shape_ST_1": 35314.21399750001, "Shape_ST_2": 839.11257891499997 }, "geometry": { "type": "MultiPolygon", "coordinates": [ [ [ [ -70.641199104966532, -33.422640170676011 ], [ -70.64421065132909, -33.422089968535182 ], [ -70.643905378571148, -33.420898590018503 ], [ -70.642415236963785, -33.421149155974646 ], [ -70.641787491904651, -33.421254067411901 ], [ -70.641874158461519, -33.421633609491153 ], [ -70.641873744526706, -33.421633672688415 ], [ -70.64110632098037, -33.421740199024114 ], [ -70.641188674295705, -33.422641670477468 ], [ -70.641199104966532, -33.422640170676011 ] ] ] ] } },
{ "type": "Feature", "properties": { "OBJECTID_1": 44, "OBJECTID": 0, "Shape_STAr": 0.0, "Shape_STLe": 0.0, "ZONA": "Z-S3", "CATEGORIA": "MONUMENTO NACIONAL", "NOMBRE": "IGLESIA QUINTA BELLA", "DIRECCION": "INOCENCIA 2705", "ETIQUETA": "MN-5", "Shape_Leng": 0.0, "GlobalID": "{0C8B40E8-F410-4EFA-BDC7-C0033F40ECB7}", "Shape_ST_1": 4252.8666009500002, "Shape_ST_2": 259.39442812599998 }, "geometry": { "type": "MultiPolygon", "coordinates": [ [ [ [ -70.641213912474058, -33.401835688358346 ], [ -70.64127537435057, -33.402436833998038 ], [ -70.641953467406424, -33.402391898203327 ], [ -70.641897331714759, -33.401831154017799 ], [ -70.641869274707858, -33.4017864337387 ], [ -70.641213912474058, -33.401835688358346 ] ] ] ] } },
{ "type": "Feature", "properties": { "OBJECTID_1": 444, "OBJECTID": 0, "Shape_STAr": 0.0, "Shape_STLe": 0.0, "ZONA": "Z-S3", "CATEGORIA": "MONUMENTO NACIONAL", "NOMBRE": "IGLESIA Y CONVENTO DE LA RECOLETA DOMÍNICA", "DIRECCION": "RECOLETA 759", "ETIQUETA": "MN-3", "Shape_Leng": 0.0, "GlobalID": "{1EDD4DA8-4C4A-47E5-82EF-4EF0763DFF0E}", "Shape_ST_1": 10101.4344925, "Shape_ST_2": 903.49295309599995 }, "geometry": { "type": "MultiPolygon", "coordinates": [ [ [ [ -70.644444734189847, -33.42473029013874 ], [ -70.644459679679713, -33.424763447900105 ], [ -70.644472092865712, -33.424790984772152 ], [ -70.644558918332223, -33.424983608446652 ], [ -70.644347368420014, -33.425050655521304 ], [ -70.644393329642469, -33.425152620998389 ], [ -70.644767147124497, -33.425034144929803 ], [ -70.644721640137291, -33.424933188129131 ], [ -70.645172983977076, -33.424790139473366 ], [ -70.64511112669399, -33.424652908124159 ], [ -70.645110388121182, -33.424651270280691 ], [ -70.644933485237232, -33.42425881066292 ], [ -70.645292360820847, -33.424145067466235 ], [ -70.645236404694032, -33.424020929080882 ], [ -70.644965053832479, -33.424106931554391 ], [ -70.644947644762155, -33.42411244899904 ], [ -70.644919476714719, -33.424049959740714 ], [ -70.645069322388835, -33.424002467577495 ], [ -70.645002812218024, -33.423854914209251 ], [ -70.644922195283257, -33.423676063259329 ], [ -70.644918340764221, -33.423667510937513 ], [ -70.6441276451894, -33.423918112837697 ], [ -70.644311591260433, -33.424343987770264 ], [ -70.643723640270736, -33.424552214670342 ], [ -70.643884008239382, -33.42490800234733 ], [ -70.644006091367672, -33.42486931065848 ], [ -70.644008094861547, -33.424868675363513 ], [ -70.644429761447256, -33.424735035706064 ], [ -70.644444734189847, -33.42473029013874 ] ], [ [ -70.645011878605274, -33.424709469833793 ], [ -70.644673846561545, -33.424822527292918 ], [ -70.644535042270491, -33.424530719060677 ], [ -70.644873073395544, -33.424417662003989 ], [ -70.645011878605274, -33.424709469833793 ] ], [ [ -70.644398475613357, -33.424613060649868 ], [ -70.644248209882548, -33.424657287559491 ], [ -70.644194126385216, -33.42452808173767 ], [ -70.644344391926438, -33.424483854898668 ], [ -70.644398475613357, -33.424613060649868 ] ], [ [ -70.644120621976043, -33.424704434062072 ], [ -70.643973239674395, -33.424748907392448 ], [ -70.643919303654812, -33.424623227446574 ], [ -70.644066684701855, -33.424578754199352 ], [ -70.644120621976043, -33.424704434062072 ] ] ] ] } },
{ "type": "Feature", "properties": { "OBJECTID_1": 446, "OBJECTID": 0, "Shape_STAr": 0.0, "Shape_STLe": 0.0, "ZONA": "Z-S5", "CATEGORIA": "SECTOR ESPECIAL", "NOMBRE": "CHALETS CALLE VALDIVIESO", "DIRECCION": "VALDIVIESO N°s 0139, 0151, 0165, 0173", "ETIQUETA": "SE-14", "Shape_Leng": 0.0, "GlobalID": "{3E57DEE8-7278-4F0B-849F-23F52C72170D}", "Shape_ST_1": 2835.4118963800001, "Shape_ST_2": 264.05934262699998 }, "geometry": { "type": "MultiPolygon", "coordinates": [ [ [ [ -70.638215073200143, -33.413410530858968 ], [ -70.6380996159332, -33.413376917706536 ], [ -70.637566194272864, -33.413221619188576 ], [ -70.637505148806852, -33.413591858700627 ], [ -70.637674437808755, -33.413610891465609 ], [ -70.637664396658721, -33.413668141553565 ], [ -70.637960036133634, -33.413737189539269 ], [ -70.637911196672491, -33.413992732692925 ], [ -70.638017762891806, -33.414010730072739 ], [ -70.638071762757647, -33.413815949973944 ], [ -70.638215073200143, -33.413410530858968 ] ] ] ] } },
{ "type": "Feature", "properties": { "OBJECTID_1": 447, "OBJECTID": 92, "Shape_STAr": 0.0, "Shape_STLe": 0.0, "ZONA": "Z-S3", "CATEGORIA": "MONUMENTO NACIONAL ZONA TÍPIC", "NOMBRE": "CERRO BLANCO", "DIRECCION": "AV. RECOLETA/ UNIÓN/ MONSERRAT/ S. DUMONT", "ETIQUETA": "MN-8", "Shape_Leng": 1911.90030247, "GlobalID": "{552D335C-5873-476A-8457-EC2AE480C4DA}", "Shape_ST_1": 219049.31411599999, "Shape_ST_2": 1911.90030247 }, "geometry": { "type": "MultiPolygon", "coordinates": [ [ [ [ -70.643915442085543, -33.418004187325138 ], [ -70.644174563305455, -33.419708229146607 ], [ -70.644373932603713, -33.420391069255118 ], [ -70.644669923081253, -33.421404814652441 ], [ -70.645435306736474, -33.421337702467333 ], [ -70.645583753622191, -33.42193552766102 ], [ -70.649103676567023, -33.42150720666308 ], [ -70.649102612106489, -33.421502555658627 ], [ -70.648654760408462, -33.419540833415027 ], [ -70.648618240411565, -33.419381218102373 ], [ -70.648302391158936, -33.418000726331194 ], [ -70.64829745959976, -33.417979173224374 ], [ -70.64828985644057, -33.417974732660632 ], [ -70.648241252261499, -33.41798092846858 ], [ -70.647556151486569, -33.417594980608918 ], [ -70.645989058669201, -33.41673146676743 ], [ -70.645062395048996, -33.416338379873068 ], [ -70.644591291920619, -33.41628288744144 ], [ -70.6443284420195, -33.416251924461491 ], [ -70.643747522630051, -33.416375048335105 ], [ -70.643749553232794, -33.416403879989254 ], [ -70.64375667959392, -33.416505041231026 ], [ -70.64381640508546, -33.417352878101489 ], [ -70.643912193921523, -33.417982825445399 ], [ -70.643915442085543, -33.418004187325138 ] ] ] ] } },
{ "type": "Feature", "properties": { "OBJECTID_1": 448, "OBJECTID": 87, "Shape_STAr": 0.0, "Shape_STLe": 0.0, "ZONA": "Z-S3", "CATEGORIA": "MONUMENTO NACIONAL", "NOMBRE": "IGLESIA LA VIÑITA", "DIRECCION": "RECOLETA ESQ. CALLE SANTOS DUMONT", "ETIQUETA": "MN-4", "Shape_Leng": 198.88392842, "GlobalID": "{06E87DB3-3883-4F4D-8A22-4B1A24668D87}", "Shape_ST_1": 1322.9850643499999, "Shape_ST_2": 198.88392841800001 }, "geometry": { "type": "MultiPolygon", "coordinates": [ [ [ [ -70.644840646617396, -33.42163204797491 ], [ -70.644878023341548, -33.421803350715571 ], [ -70.645075932443859, -33.421760410224373 ], [ -70.64508365616787, -33.421783204311112 ], [ -70.645100674806855, -33.421855754370917 ], [ -70.645073693948078, -33.421858498516336 ], [ -70.645075836447688, -33.421896648134407 ], [ -70.645104284793902, -33.421896270761792 ], [ -70.645109203652225, -33.421930803287559 ], [ -70.64549212189317, -33.421892797370489 ], [ -70.645447093898966, -33.421718057578751 ], [ -70.645204776166338, -33.421759446852299 ], [ -70.645198581640386, -33.421733798939748 ], [ -70.645229424129326, -33.421727106734366 ], [ -70.645180713099393, -33.421558339807248 ], [ -70.644840646617396, -33.42163204797491 ] ] ] ] } },
{ "type": "Feature", "properties": { "OBJECTID_1": 449, "OBJECTID": 88, "Shape_STAr": 0.0, "Shape_STLe": 0.0, "ZONA": "Z-S3", "CATEGORIA": "MONUMENTO NACIONAL", "NOMBRE": "IGLESIA LA VIÑITA", "DIRECCION": "RECOLETA ESQ. CALLE SANTOS DUMONT", "ETIQUETA": "MN-4", "Shape_Leng": 25.86449787, "GlobalID": "{0108899C-7636-43FD-B348-00E799F7802B}", "Shape_ST_1": 34.895041221500001, "Shape_ST_2": 25.864497871899999 }, "geometry": { "type": "MultiPolygon", "coordinates": [ [ [ [ -70.644924041021753, -33.421865558172343 ], [ -70.644924715985098, -33.421901341019094 ], [ -70.645022712611762, -33.42189216639462 ], [ -70.645020370726186, -33.421858553817387 ], [ -70.644924041021753, -33.421865558172343 ] ] ] ] } },
{ "type": "Feature", "properties": { "OBJECTID_1": 452, "OBJECTID": 0, "Shape_STAr": 0.0, "Shape_STLe": 0.0, "ZONA": "Z-S5", "CATEGORIA": "SECTOR ESPECIAL", "NOMBRE": "CONJUNTO DE VIVIENDAS", "DIRECCION": "BOMBERO NUÑEZ 1 AL 91", "ETIQUETA": "SE-6", "Shape_Leng": 0.0, "GlobalID": "{4C161D07-9503-4162-B1E7-829E17AEBC5E}", "Shape_ST_1": 706.27920140900005, "Shape_ST_2": 210.90647201600001 }, "geometry": { "type": "MultiPolygon", "coordinates": [ [ [ [ -70.640244705475652, -33.434091797715062 ], [ -70.640356455981234, -33.434052836679498 ], [ -70.640279128534758, -33.433793683938617 ], [ -70.640176284016292, -33.433449014591623 ], [ -70.640114981369678, -33.433243566457925 ], [ -70.640084569058672, -33.433215335668017 ], [ -70.640082263322114, -33.433214724965879 ], [ -70.640094497466208, -33.433286255812121 ], [ -70.640106213044774, -33.433354748941952 ], [ -70.640120185105019, -33.433436439342017 ], [ -70.6401357440797, -33.433527410207851 ], [ -70.640142953101176, -33.433569558303169 ], [ -70.640125924532541, -33.433573577541125 ], [ -70.640131503093457, -33.433597841397926 ], [ -70.640118040593194, -33.433599769921273 ], [ -70.640133131257997, -33.433654131839042 ], [ -70.640145867921845, -33.433650384006746 ], [ -70.640159412482262, -33.433692944301583 ], [ -70.640160991250795, -33.433697906020662 ], [ -70.640167040555667, -33.433726607859192 ], [ -70.640180566974038, -33.433790781612906 ], [ -70.640181447230702, -33.43379611961565 ], [ -70.640183174340478, -33.433818110403401 ], [ -70.640190588437477, -33.433851090497576 ], [ -70.640204864823431, -33.43391459058045 ], [ -70.640212299974067, -33.433947659675091 ], [ -70.640223436316532, -33.433997192287997 ], [ -70.640243535111424, -33.434086590708588 ], [ -70.640244705475652, -33.434091797715062 ] ] ] ] } },
{ "type": "Feature", "properties": { "OBJECTID_1": 454, "OBJECTID": 0, "Shape_STAr": 0.0, "Shape_STLe": 0.0, "ZONA": "Z-S5", "CATEGORIA": "SECTOR ESPECIAL", "NOMBRE": "CONJUNTO DE EDIFICIOS", "DIRECCION": "SANTA MARIA 349 AL 383 Y 401-489", "ETIQUETA": "SE-8", "Shape_Leng": 0.0, "GlobalID": "{7A349C54-900B-4D2F-8D3F-400F77ECA1E0}", "Shape_ST_1": 3276.3404120099999, "Shape_ST_2": 236.52611141 }, "geometry": { "type": "MultiPolygon", "coordinates": [ [ [ [ -70.64501586696818, -33.43299002516514 ], [ -70.644224818229077, -33.433176133851639 ], [ -70.644199398594964, -33.433216557172919 ], [ -70.644303864271492, -33.43350436643167 ], [ -70.64434971020421, -33.433520938274221 ], [ -70.64511601303505, -33.433350427720825 ], [ -70.645143797714084, -33.433314745311996 ], [ -70.645045816785569, -33.433008716812104 ], [ -70.64501586696818, -33.43299002516514 ] ] ] ] } },
{ "type": "Feature", "properties": { "OBJECTID_1": 1243, "OBJECTID": 59, "Shape_STAr": 0.0, "Shape_STLe": 0.0, "ZONA": "Z-S4", "CATEGORIA": "INM DE CONSERVACION HISTÓRICA", "NOMBRE": "CAPILLA DEL CEMENTERIO GENERAL", "DIRECCION": "PROF. ZAÑARTU. INT. CEMENTERIO GENERAL", "ETIQUETA": "ICH-7", "Shape_Leng": 154.70817481, "GlobalID": "{B989FF3A-9B96-46CA-B132-0C28D19D410A}", "Shape_ST_1": 449.15331495499998, "Shape_ST_2": 83.698424461200005 }, "geometry": { "type": "MultiPolygon", "coordinates": [ [ [ [ -70.650011943091087, -33.417418310895478 ], [ -70.650103517249605, -33.417403570535029 ], [ -70.650142495371497, -33.417360387310524 ], [ -70.650125884878406, -33.417294513270818 ], [ -70.650112907331263, -33.417285379962422 ], [ -70.650076975992647, -33.417160826647184 ], [ -70.649899142662633, -33.41719087143619 ], [ -70.649950344019217, -33.417385611216645 ], [ -70.650011943091087, -33.417418310895478 ] ] ] ] } },
{ "type": "Feature", "properties": { "OBJECTID_1": 30, "OBJECTID": 33, "Shape_STAr": 0.0, "Shape_STLe": 0.0, "ZONA": "Z-S5", "CATEGORIA": "SECTOR ESPECIAL", "NOMBRE": "CONJUNTO DE VIVIENDAS", "DIRECCION": "RECOLETA 1169 AL 1189", "ETIQUETA": "SE-9", "Shape_Leng": 129.71721273, "GlobalID": "{62343C0E-3019-4ACC-AE5A-1DB537F85585}", "Shape_ST_1": 1335.68098439, "Shape_ST_2": 150.035977315 }, "geometry": { "type": "MultiPolygon", "coordinates": [ [ [ [ -70.643510678407822, -33.418464123701632 ], [ -70.643650264410923, -33.41841810583832 ], [ -70.643651375492183, -33.418417715952032 ], [ -70.643735488513784, -33.418403488575223 ], [ -70.643735636441818, -33.418403463167074 ], [ -70.643766021069126, -33.418398324047708 ], [ -70.643742010667751, -33.418248213433607 ], [ -70.643716549180169, -33.418083299564373 ], [ -70.643671441865081, -33.418056344669729 ], [ -70.643669019001152, -33.418056517465374 ], [ -70.643455589088077, -33.41809280736252 ], [ -70.643455740865278, -33.418093671108096 ], [ -70.643448621793453, -33.418095047846812 ], [ -70.643429978238373, -33.418115465225164 ], [ -70.643445728223682, -33.418198765979682 ], [ -70.643388186945515, -33.418247599604143 ], [ -70.643393968538305, -33.418256398804616 ], [ -70.643305989652646, -33.41829591939382 ], [ -70.643431241176742, -33.418495928762219 ], [ -70.643471837146691, -33.418479673720235 ], [ -70.643510678407822, -33.418464123701632 ] ] ] ] } }
]
}
